{
"type": "FeatureCollection",
"name": "parks",
"crs": { "type": "name", "properties": { "name": "urn:ogc:def:crs:OGC:1.3:CRS84" } },
"features": [
{ "type": "Feature", "properties": { "element": "relation", "id": 15328449, "addr:city": null, "addr:housenumber": null, "addr:postcode": null, "addr:state": null, "addr:street": null, "gnis:feature_id": "625556", "leisure": "park", "name": "Emerald Drive Park", "note": null, "opening_hours": null, "website": null, "wikidata": "Q49486873", "ele": "260", "access": "yes", "operator": "City of Kalamazoo", "description": null, "operator:type": "public", "name:etymology:wikidata": null, "source": null, "type": "multipolygon", "operator:wikidata": "Q167155" }, "geometry": { "type": "Polygon", "coordinates": [ [ [ -85.5504007, 42.2505803 ], [ -85.5504119, 42.2511083 ], [ -85.5504932, 42.25594 ], [ -85.5505524, 42.2594558 ], [ -85.5500306, 42.2594558 ], [ -85.5499548, 42.2505261 ], [ -85.5480526, 42.2505126 ], [ -85.5477474, 42.250431 ], [ -85.5474167, 42.2504749 ], [ -85.5458028, 42.2505417 ], [ -85.5457986, 42.2504037 ], [ -85.5503401, 42.2488152 ], [ -85.5503995, 42.2505232 ], [ -85.5504007, 42.2505803 ] ], [ [ -85.548172, 42.2501212 ], [ -85.5477637, 42.2501224 ], [ -85.5477652, 42.2503963 ], [ -85.5481735, 42.250395 ], [ -85.548172, 42.2501212 ] ] ] } },
{ "type": "Feature", "properties": { "element": "relation", "id": 19020918, "addr:city": null, "addr:housenumber": null, "addr:postcode": null, "addr:state": null, "addr:street": null, "gnis:feature_id": null, "leisure": "park", "name": null, "note": null, "opening_hours": null, "website": null, "wikidata": null, "ele": null, "access": null, "operator": null, "description": null, "operator:type": null, "name:etymology:wikidata": null, "source": null, "type": "multipolygon", "operator:wikidata": null }, "geometry": { "type": "Polygon", "coordinates": [ [ [ -85.5893625, 42.2710519 ], [ -85.5892982, 42.271064 ], [ -85.5892214, 42.2710677 ], [ -85.5885334, 42.2710584 ], [ -85.5884956, 42.2710453 ], [ -85.5884805, 42.271023 ], [ -85.5883412, 42.2710754 ], [ -85.5882157, 42.2711347 ], [ -85.5874909, 42.2711852 ], [ -85.5872456, 42.2711531 ], [ -85.5871721, 42.2711202 ], [ -85.5869775, 42.2710333 ], [ -85.5869124, 42.2707686 ], [ -85.5870158, 42.2702031 ], [ -85.5871164, 42.2700087 ], [ -85.5871245, 42.269993 ], [ -85.5872656, 42.2699224 ], [ -85.58889, 42.2699013 ], [ -85.5889139, 42.2699116 ], [ -85.5889467, 42.269933 ], [ -85.5889858, 42.2699423 ], [ -85.5890236, 42.2699386 ], [ -85.5890513, 42.2699283 ], [ -85.5890828, 42.2699162 ], [ -85.5891496, 42.2699162 ], [ -85.5891434, 42.269793 ], [ -85.5895493, 42.2697955 ], [ -85.5895505, 42.2702189 ], [ -85.5895424, 42.2704141 ], [ -85.5895333, 42.2705566 ], [ -85.5895195, 42.2706321 ], [ -85.5895012, 42.270683 ], [ -85.5894736, 42.2707331 ], [ -85.5894484, 42.2707874 ], [ -85.5894335, 42.2708553 ], [ -85.589406, 42.2709944 ], [ -85.5893953, 42.2710267 ], [ -85.5893625, 42.2710519 ] ], [ [ -85.5878208, 42.2700592 ], [ -85.5878158, 42.2702723 ], [ -85.5878852, 42.2702732 ], [ -85.5878902, 42.2700601 ], [ -85.5878208, 42.2700592 ] ], [ [ -85.5879341, 42.2700627 ], [ -85.5879265, 42.2702738 ], [ -85.5879774, 42.2702748 ], [ -85.587985, 42.2700637 ], [ -85.5879341, 42.2700627 ] ], [ [ -85.5873088, 42.2702726 ], [ -85.5873063, 42.2703264 ], [ -85.5877302, 42.270337 ], [ -85.5877327, 42.2702833 ], [ -85.5873088, 42.2702726 ] ], [ [ -85.587893, 42.2702951 ], [ -85.5877567, 42.2702915 ], [ -85.5877546, 42.270337 ], [ -85.5878908, 42.2703405 ], [ -85.587893, 42.2702951 ] ], [ [ -85.5880568, 42.2702948 ], [ -85.5879183, 42.2702908 ], [ -85.5879161, 42.2703402 ], [ -85.5880542, 42.2703432 ], [ -85.5880568, 42.2702948 ] ], [ [ -85.5882457, 42.2703428 ], [ -85.5882463, 42.2702949 ], [ -85.5880822, 42.270294 ], [ -85.5880817, 42.2703418 ], [ -85.5882457, 42.2703428 ] ], [ [ -85.588147, 42.2704125 ], [ -85.5882075, 42.2703876 ], [ -85.5882426, 42.270368 ], [ -85.5880834, 42.2703673 ], [ -85.5880834, 42.27038 ], [ -85.588044, 42.2703816 ], [ -85.5880443, 42.2703662 ], [ -85.5879241, 42.2703643 ], [ -85.5879234, 42.2703835 ], [ -85.5878807, 42.2703832 ], [ -85.587881, 42.2703621 ], [ -85.5877583, 42.27036 ], [ -85.5877575, 42.2703778 ], [ -85.587717, 42.270374 ], [ -85.5877164, 42.2703638 ], [ -85.5875884, 42.2703584 ], [ -85.587588, 42.2703762 ], [ -85.5875529, 42.2703746 ], [ -85.5875518, 42.2703548 ], [ -85.58744, 42.2703551 ], [ -85.587501, 42.2703716 ], [ -85.5876432, 42.2704062 ], [ -85.58807, 42.2704222 ], [ -85.588147, 42.2704125 ] ], [ [ -85.5875309, 42.2705909 ], [ -85.5874252, 42.2705498 ], [ -85.5873922, 42.2705868 ], [ -85.5874884, 42.27063 ], [ -85.5875526, 42.270667 ], [ -85.5875837, 42.2707026 ], [ -85.5876186, 42.2706879 ], [ -85.5876214, 42.2706649 ], [ -85.587595, 42.2706265 ], [ -85.5875309, 42.2705909 ] ], [ [ -85.5886771, 42.2707491 ], [ -85.5885378, 42.2707464 ], [ -85.58853, 42.2709657 ], [ -85.5886692, 42.2709684 ], [ -85.5886771, 42.2707491 ] ], [ [ -85.588838, 42.2707565 ], [ -85.5886989, 42.2707541 ], [ -85.5886919, 42.2709697 ], [ -85.5888311, 42.2709721 ], [ -85.588838, 42.2707565 ] ] ] } },
{ "type": "Feature", "properties": { "element": "relation", "id": 19166164, "addr:city": null, "addr:housenumber": null, "addr:postcode": null, "addr:state": null, "addr:street": null, "gnis:feature_id": null, "leisure": "park", "name": "Woods Lake Park", "note": null, "opening_hours": null, "website": null, "wikidata": "Q79870818", "ele": null, "access": null, "operator": null, "description": null, "operator:type": null, "name:etymology:wikidata": null, "source": null, "type": "multipolygon", "operator:wikidata": null }, "geometry": { "type": "Polygon", "coordinates": [ [ [ -85.6138937, 42.2616337 ], [ -85.6134181, 42.2618181 ], [ -85.6129383, 42.2624841 ], [ -85.612193, 42.2630749 ], [ -85.61174, 42.2633145 ], [ -85.610981, 42.2631825 ], [ -85.6115505, 42.2626248 ], [ -85.6121456, 42.2621727 ], [ -85.6129963, 42.2614614 ], [ -85.6132428, 42.2616938 ], [ -85.6147978, 42.2605326 ], [ -85.6150686, 42.2605263 ], [ -85.6150672, 42.2608999 ], [ -85.6145204, 42.2611507 ], [ -85.6138937, 42.2616337 ] ] ] } },
{ "type": "Feature", "properties": { "element": "way", "id": 98341001, "addr:city": "Kalamazoo", "addr:housenumber": "200", "addr:postcode": "49007", "addr:state": "MI", "addr:street": "South Rose Street", "gnis:feature_id": "2627742", "leisure": "park", "name": "Bronson Park", "note": "Bicycling in the Park is Prohibited", "opening_hours": "08:00-sunset", "website": "https://www.kzooparks.org/Parks-Facilities/Bronson-Park", "wikidata": "Q34907365", "ele": null, "access": null, "operator": null, "description": null, "operator:type": null, "name:etymology:wikidata": null, "source": null, "type": null, "operator:wikidata": null }, "geometry": { "type": "Polygon", "coordinates": [ [ [ -85.587155, 42.2905725 ], [ -85.5871245, 42.2898216 ], [ -85.5855574, 42.2898544 ], [ -85.5848541, 42.2898691 ], [ -85.5848778, 42.2906325 ], [ -85.587155, 42.2905725 ] ] ] } },
{ "type": "Feature", "properties": { "element": "way", "id": 100854680, "addr:city": null, "addr:housenumber": null, "addr:postcode": null, "addr:state": null, "addr:street": null, "gnis:feature_id": "1615557;624665", "leisure": "park", "name": "VerSluis & Dickinson Park", "note": null, "opening_hours": null, "website": null, "wikidata": "Q49574437", "ele": "237", "access": null, "operator": null, "description": null, "operator:type": null, "name:etymology:wikidata": null, "source": null, "type": null, "operator:wikidata": null }, "geometry": { "type": "Polygon", "coordinates": [ [ [ -85.5963085, 42.3070745 ], [ -85.599776, 42.3070995 ], [ -85.5997653, 42.3106707 ], [ -85.6014047, 42.3106707 ], [ -85.6014374, 42.3128109 ], [ -85.5995888, 42.3128255 ], [ -85.5996103, 42.3146519 ], [ -85.5973492, 42.3146737 ], [ -85.5973186, 42.3113352 ], [ -85.5973164, 42.3107952 ], [ -85.5964807, 42.3107949 ], [ -85.5963407, 42.3107814 ], [ -85.5963085, 42.3070745 ] ] ] } },
{ "type": "Feature", "properties": { "element": "way", "id": 258169705, "addr:city": null, "addr:housenumber": null, "addr:postcode": null, "addr:state": null, "addr:street": null, "gnis:feature_id": "627859", "leisure": "park", "name": "Harrison Park", "note": null, "opening_hours": null, "website": null, "wikidata": "Q34886309", "ele": null, "access": null, "operator": null, "description": null, "operator:type": null, "name:etymology:wikidata": null, "source": null, "type": null, "operator:wikidata": null }, "geometry": { "type": "Polygon", "coordinates": [ [ [ -85.5746337, 42.2980408 ], [ -85.5746099, 42.2980409 ], [ -85.5745852, 42.2980289 ], [ -85.5745606, 42.2980183 ], [ -85.5740269, 42.2980317 ], [ -85.5739758, 42.2980365 ], [ -85.5739524, 42.2980435 ], [ -85.5739204, 42.2980524 ], [ -85.5738973, 42.2980576 ], [ -85.5738796, 42.298058 ], [ -85.5738618, 42.2980557 ], [ -85.5738313, 42.2980456 ], [ -85.5738068, 42.2980299 ], [ -85.5737813, 42.2980089 ], [ -85.573759, 42.2979861 ], [ -85.5737471, 42.2979647 ], [ -85.573736, 42.2979334 ], [ -85.5737331, 42.2978998 ], [ -85.5737358, 42.2978704 ], [ -85.5737493, 42.297844 ], [ -85.5737803, 42.2978101 ], [ -85.5743671, 42.2974017 ], [ -85.5743905, 42.2973896 ], [ -85.5744179, 42.2973796 ], [ -85.5744477, 42.2973736 ], [ -85.5744851, 42.2973719 ], [ -85.5745179, 42.2973742 ], [ -85.5745462, 42.2973809 ], [ -85.5745715, 42.2973897 ], [ -85.5745943, 42.2974017 ], [ -85.5746147, 42.2974155 ], [ -85.5746392, 42.2974392 ], [ -85.5746565, 42.2974625 ], [ -85.5746708, 42.2974887 ], [ -85.5746752, 42.2975115 ], [ -85.5746903, 42.2975704 ], [ -85.5746963, 42.2976018 ], [ -85.5747003, 42.2976339 ], [ -85.5746931, 42.2976425 ], [ -85.5746819, 42.2976519 ], [ -85.5746706, 42.2976706 ], [ -85.5746849, 42.2979447 ], [ -85.5747018, 42.2979559 ], [ -85.5747105, 42.2979637 ], [ -85.574714, 42.2979713 ], [ -85.5747148, 42.2979916 ], [ -85.5747064, 42.2980093 ], [ -85.5746946, 42.2980218 ], [ -85.5746776, 42.2980327 ], [ -85.5746518, 42.2980388 ], [ -85.5746337, 42.2980408 ] ] ] } },
{ "type": "Feature", "properties": { "element": "way", "id": 258169709, "addr:city": null, "addr:housenumber": null, "addr:postcode": null, "addr:state": null, "addr:street": null, "gnis:feature_id": null, "leisure": "park", "name": "Arcadia Playground", "note": null, "opening_hours": null, "website": null, "wikidata": null, "ele": null, "access": null, "operator": null, "description": null, "operator:type": null, "name:etymology:wikidata": null, "source": null, "type": null, "operator:wikidata": null }, "geometry": { "type": "Polygon", "coordinates": [ [ [ -85.5825465, 42.2944027 ], [ -85.5825238, 42.2937619 ], [ -85.5825527, 42.2937599 ], [ -85.5825748, 42.2937588 ], [ -85.5825942, 42.2937474 ], [ -85.5826026, 42.2937338 ], [ -85.5826079, 42.293641 ], [ -85.5826059, 42.2936125 ], [ -85.5826051, 42.2936006 ], [ -85.5825955, 42.2934662 ], [ -85.5825763, 42.2934543 ], [ -85.5825635, 42.2934523 ], [ -85.5825148, 42.2934523 ], [ -85.5825052, 42.2931692 ], [ -85.5825023, 42.2930834 ], [ -85.582494, 42.2928389 ], [ -85.5824935, 42.2928228 ], [ -85.5820357, 42.2930316 ], [ -85.5818637, 42.2931101 ], [ -85.5817045, 42.2931827 ], [ -85.5815187, 42.2932674 ], [ -85.5812556, 42.2933874 ], [ -85.5812508, 42.2934012 ], [ -85.581246, 42.2934152 ], [ -85.5815541, 42.2937882 ], [ -85.5816193, 42.2938894 ], [ -85.581657, 42.2939559 ], [ -85.5816985, 42.2940738 ], [ -85.5817194, 42.294144 ], [ -85.5817206, 42.2941815 ], [ -85.5817227, 42.2942505 ], [ -85.5817267, 42.2943817 ], [ -85.5817268, 42.2944137 ], [ -85.5817873, 42.2944551 ], [ -85.581843, 42.2944545 ], [ -85.5818472, 42.2944544 ], [ -85.5820318, 42.2944523 ], [ -85.5824594, 42.2944447 ], [ -85.5825465, 42.2944027 ] ] ] } },
{ "type": "Feature", "properties": { "element": "way", "id": 259597851, "addr:city": null, "addr:housenumber": null, "addr:postcode": null, "addr:state": null, "addr:street": null, "gnis:feature_id": null, "leisure": "park", "name": "Asylum Lake Preserve", "note": null, "opening_hours": null, "website": null, "wikidata": null, "ele": null, "access": null, "operator": null, "description": null, "operator:type": null, "name:etymology:wikidata": null, "source": null, "type": null, "operator:wikidata": null }, "geometry": { "type": "Polygon", "coordinates": [ [ [ -85.6481161, 42.260005 ], [ -85.6483606, 42.2695842 ], [ -85.6429508, 42.2703573 ], [ -85.6429508, 42.2691371 ], [ -85.6416934, 42.2687863 ], [ -85.6394467, 42.2686185 ], [ -85.6387871, 42.2685728 ], [ -85.6366022, 42.2672 ], [ -85.63518, 42.2672 ], [ -85.6339433, 42.2668492 ], [ -85.6336913, 42.2642532 ], [ -85.6332631, 42.259842 ], [ -85.6479805, 42.2598986 ], [ -85.6481052, 42.2599042 ], [ -85.6481161, 42.260005 ] ] ] } },
{ "type": "Feature", "properties": { "element": "way", "id": 260006076, "addr:city": null, "addr:housenumber": null, "addr:postcode": null, "addr:state": null, "addr:street": null, "gnis:feature_id": "629378", "leisure": "park", "name": "Jones Park", "note": null, "opening_hours": null, "website": null, "wikidata": "Q34913960", "ele": null, "access": null, "operator": null, "description": null, "operator:type": null, "name:etymology:wikidata": null, "source": null, "type": null, "operator:wikidata": null }, "geometry": { "type": "Polygon", "coordinates": [ [ [ -85.6075092, 42.2900506 ], [ -85.6075041, 42.2900393 ], [ -85.6074974, 42.2900073 ], [ -85.6074913, 42.28996 ], [ -85.6074881, 42.2899038 ], [ -85.6074838, 42.2897173 ], [ -85.6074817, 42.2896638 ], [ -85.6074817, 42.289613 ], [ -85.6074845, 42.2896003 ], [ -85.6074912, 42.2895885 ], [ -85.607497, 42.2895818 ], [ -85.6075079, 42.2895721 ], [ -85.6075262, 42.2895632 ], [ -85.6075551, 42.2895504 ], [ -85.6075912, 42.2895339 ], [ -85.6076385, 42.2895138 ], [ -85.6076846, 42.2894957 ], [ -85.6077193, 42.2894785 ], [ -85.6077683, 42.2894584 ], [ -85.6077953, 42.2894512 ], [ -85.6078332, 42.2894468 ], [ -85.607875, 42.2894449 ], [ -85.6079286, 42.2894459 ], [ -85.607971, 42.2894508 ], [ -85.6080174, 42.2894614 ], [ -85.6080581, 42.2894768 ], [ -85.6081043, 42.2894968 ], [ -85.6081728, 42.2895278 ], [ -85.6082201, 42.2895532 ], [ -85.6082593, 42.2895731 ], [ -85.6083249, 42.2896098 ], [ -85.6083555, 42.2896277 ], [ -85.6084127, 42.2896592 ], [ -85.6084566, 42.2896866 ], [ -85.6085059, 42.2897158 ], [ -85.6085551, 42.2897462 ], [ -85.6085848, 42.2897667 ], [ -85.6086198, 42.2897895 ], [ -85.6086687, 42.2898228 ], [ -85.6087082, 42.2898518 ], [ -85.608758, 42.2898882 ], [ -85.6087928, 42.2899156 ], [ -85.6088273, 42.2899427 ], [ -85.6088847, 42.2899897 ], [ -85.6089155, 42.2900197 ], [ -85.608928, 42.2900333 ], [ -85.6089519, 42.2900592 ], [ -85.6089638, 42.2900749 ], [ -85.6089753, 42.290095 ], [ -85.6089809, 42.2901097 ], [ -85.6089841, 42.2901325 ], [ -85.6089877, 42.2901703 ], [ -85.6089865, 42.2902057 ], [ -85.6089831, 42.2902278 ], [ -85.6089772, 42.2902547 ], [ -85.6089536, 42.2903049 ], [ -85.6089377, 42.2903316 ], [ -85.6089235, 42.2903451 ], [ -85.608907, 42.2903541 ], [ -85.6088931, 42.290357 ], [ -85.608875, 42.2903569 ], [ -85.6088582, 42.2903521 ], [ -85.6088421, 42.2903409 ], [ -85.6088184, 42.2903223 ], [ -85.6087539, 42.2902791 ], [ -85.6086836, 42.2902358 ], [ -85.6085798, 42.2901762 ], [ -85.6085532, 42.2901622 ], [ -85.60848, 42.2901311 ], [ -85.6083547, 42.2900816 ], [ -85.6082999, 42.2900655 ], [ -85.6082593, 42.290059 ], [ -85.6081455, 42.290038 ], [ -85.6080809, 42.2900302 ], [ -85.6080206, 42.2900267 ], [ -85.6079064, 42.2900239 ], [ -85.6078106, 42.2900296 ], [ -85.6077645, 42.2900356 ], [ -85.6076952, 42.2900467 ], [ -85.6076179, 42.2900586 ], [ -85.6075556, 42.2900687 ], [ -85.6075395, 42.2900681 ], [ -85.6075285, 42.2900659 ], [ -85.607515, 42.2900579 ], [ -85.6075092, 42.2900506 ] ] ] } },
{ "type": "Feature", "properties": { "element": "way", "id": 260043884, "addr:city": null, "addr:housenumber": null, "addr:postcode": null, "addr:state": null, "addr:street": null, "gnis:feature_id": null, "leisure": "park", "name": "Frays Park", "note": null, "opening_hours": null, "website": null, "wikidata": "Q49491621", "ele": null, "access": null, "operator": null, "description": null, "operator:type": null, "name:etymology:wikidata": null, "source": null, "type": null, "operator:wikidata": null }, "geometry": { "type": "Polygon", "coordinates": [ [ [ -85.6433663, 42.3028864 ], [ -85.6422141, 42.3028901 ], [ -85.6421924, 42.2991992 ], [ -85.6433445, 42.2991955 ], [ -85.6433663, 42.3028864 ] ] ] } },
{ "type": "Feature", "properties": { "element": "way", "id": 260047101, "addr:city": "Kalamazoo", "addr:housenumber": "353", "addr:postcode": "49007", "addr:state": "MI", "addr:street": "West Paterson Street", "gnis:feature_id": "629902", "leisure": "park", "name": "La Crone Park", "note": null, "opening_hours": "08:00-sunset", "website": null, "wikidata": "Q79871110", "ele": "236", "access": null, "operator": null, "description": null, "operator:type": null, "name:etymology:wikidata": null, "source": null, "type": null, "operator:wikidata": null }, "geometry": { "type": "Polygon", "coordinates": [ [ [ -85.59488, 42.303391 ], [ -85.5948785, 42.3033304 ], [ -85.594858, 42.302505 ], [ -85.5947459, 42.3025054 ], [ -85.5916948, 42.3025154 ], [ -85.5916908, 42.303408 ], [ -85.59488, 42.303391 ] ] ] } },
{ "type": "Feature", "properties": { "element": "way", "id": 260050536, "addr:city": "Kalamazoo", "addr:housenumber": null, "addr:postcode": null, "addr:state": "MI", "addr:street": null, "gnis:feature_id": "638450", "leisure": "park", "name": "Southside Park", "note": null, "opening_hours": null, "website": null, "wikidata": "Q79872214", "ele": "244", "access": null, "operator": null, "description": null, "operator:type": null, "name:etymology:wikidata": null, "source": null, "type": null, "operator:wikidata": null }, "geometry": { "type": "Polygon", "coordinates": [ [ [ -85.5677934, 42.270738 ], [ -85.5694746, 42.2707352 ], [ -85.5694617, 42.2699405 ], [ -85.5678007, 42.2699356 ], [ -85.5677996, 42.2699947 ], [ -85.5677947, 42.2703811 ], [ -85.5677934, 42.270738 ] ] ] } },
{ "type": "Feature", "properties": { "element": "way", "id": 260051148, "addr:city": null, "addr:housenumber": null, "addr:postcode": null, "addr:state": null, "addr:street": null, "gnis:feature_id": "635762", "leisure": "park", "name": "Reed Park", "note": null, "opening_hours": null, "website": null, "wikidata": "Q49549053", "ele": "237", "access": "yes", "operator": "City of Kalamazoo", "description": null, "operator:type": null, "name:etymology:wikidata": null, "source": null, "type": null, "operator:wikidata": null }, "geometry": { "type": "Polygon", "coordinates": [ [ [ -85.5712301, 42.27419 ], [ -85.5711928, 42.2742323 ], [ -85.5708894, 42.2749366 ], [ -85.5719466, 42.274951 ], [ -85.5719308, 42.2741734 ], [ -85.5712301, 42.27419 ] ] ] } },
{ "type": "Feature", "properties": { "element": "way", "id": 260051149, "addr:city": null, "addr:housenumber": null, "addr:postcode": null, "addr:state": null, "addr:street": null, "gnis:feature_id": "627986", "leisure": "park", "name": "Hayes Park", "note": null, "opening_hours": null, "website": null, "wikidata": "Q49499108", "ele": "243", "access": null, "operator": null, "description": null, "operator:type": null, "name:etymology:wikidata": null, "source": null, "type": null, "operator:wikidata": null }, "geometry": { "type": "Polygon", "coordinates": [ [ [ -85.555581, 42.266844 ], [ -85.555298, 42.266843 ], [ -85.5552035, 42.2668434 ], [ -85.5546234, 42.2668461 ], [ -85.5534915, 42.266853 ], [ -85.5535147, 42.2683621 ], [ -85.5535282, 42.2692393 ], [ -85.5535741, 42.2692388 ], [ -85.5545406, 42.2692279 ], [ -85.5551084, 42.2692215 ], [ -85.5555911, 42.269216 ], [ -85.555589, 42.269002 ], [ -85.555589, 42.267905 ], [ -85.555581, 42.266844 ] ] ] } },
{ "type": "Feature", "properties": { "element": "way", "id": 261720132, "addr:city": null, "addr:housenumber": null, "addr:postcode": null, "addr:state": null, "addr:street": null, "gnis:feature_id": null, "leisure": "park", "name": null, "note": null, "opening_hours": null, "website": null, "wikidata": null, "ele": null, "access": null, "operator": null, "description": null, "operator:type": null, "name:etymology:wikidata": null, "source": null, "type": null, "operator:wikidata": null }, "geometry": { "type": "Polygon", "coordinates": [ [ [ -85.5980764, 42.2892265 ], [ -85.5975917, 42.289202 ], [ -85.5975, 42.28927 ], [ -85.597021, 42.289567 ], [ -85.596434, 42.289828 ], [ -85.596003, 42.28998 ], [ -85.595803, 42.29006 ], [ -85.595613, 42.290156 ], [ -85.595081, 42.290479 ], [ -85.595225, 42.2904773 ], [ -85.5952506, 42.2904764 ], [ -85.595538, 42.290472 ], [ -85.595724, 42.290469 ], [ -85.5963866, 42.2904541 ], [ -85.5964265, 42.2904532 ], [ -85.5980764, 42.2892265 ] ] ] } },
{ "type": "Feature", "properties": { "element": "way", "id": 266161497, "addr:city": null, "addr:housenumber": null, "addr:postcode": null, "addr:state": null, "addr:street": null, "gnis:feature_id": "629825", "leisure": "park", "name": "Knollwood Park", "note": null, "opening_hours": null, "website": null, "wikidata": "Q49511741", "ele": null, "access": null, "operator": null, "description": null, "operator:type": null, "name:etymology:wikidata": null, "source": null, "type": null, "operator:wikidata": null }, "geometry": { "type": "Polygon", "coordinates": [ [ [ -85.6263082, 42.2768338 ], [ -85.626379, 42.2756086 ], [ -85.6265959, 42.2750998 ], [ -85.6263358, 42.2747962 ], [ -85.6266497, 42.2744503 ], [ -85.6269368, 42.2743002 ], [ -85.6245598, 42.2740126 ], [ -85.623868, 42.273928 ], [ -85.6227102, 42.2738622 ], [ -85.6226265, 42.2761634 ], [ -85.6238245, 42.2761769 ], [ -85.6238244, 42.2768277 ], [ -85.6263082, 42.2768338 ] ] ] } },
{ "type": "Feature", "properties": { "element": "way", "id": 266908606, "addr:city": null, "addr:housenumber": null, "addr:postcode": null, "addr:state": null, "addr:street": null, "gnis:feature_id": "1616219", "leisure": "park", "name": "Westnedge Park", "note": null, "opening_hours": null, "website": null, "wikidata": "Q49579419", "ele": null, "access": null, "operator": null, "description": null, "operator:type": null, "name:etymology:wikidata": null, "source": null, "type": null, "operator:wikidata": null }, "geometry": { "type": "Polygon", "coordinates": [ [ [ -85.5894711, 42.2806195 ], [ -85.588228, 42.2806276 ], [ -85.5882376, 42.2814252 ], [ -85.5894807, 42.281417 ], [ -85.5894762, 42.2807163 ], [ -85.5894711, 42.2806195 ] ] ] } },
{ "type": "Feature", "properties": { "element": "way", "id": 274709100, "addr:city": null, "addr:housenumber": null, "addr:postcode": null, "addr:state": null, "addr:street": null, "gnis:feature_id": "638614", "leisure": "park", "name": "Spring Valley Park", "note": null, "opening_hours": null, "website": null, "wikidata": "Q49564811", "ele": "246", "access": null, "operator": null, "description": null, "operator:type": null, "name:etymology:wikidata": null, "source": null, "type": null, "operator:wikidata": null }, "geometry": { "type": "Polygon", "coordinates": [ [ [ -85.560807, 42.314787 ], [ -85.5607659, 42.3120926 ], [ -85.5607016, 42.310966 ], [ -85.5604012, 42.3101567 ], [ -85.5601464, 42.3103597 ], [ -85.5598004, 42.3104106 ], [ -85.5574914, 42.3104624 ], [ -85.556552, 42.31112 ], [ -85.5557204, 42.3113782 ], [ -85.5546052, 42.3117304 ], [ -85.5538901, 42.3117375 ], [ -85.5538864, 42.3122561 ], [ -85.5535192, 42.3127661 ], [ -85.5528952, 42.3131855 ], [ -85.5516846, 42.3131823 ], [ -85.5505355, 42.3135102 ], [ -85.5498053, 42.3135697 ], [ -85.5481753, 42.3139128 ], [ -85.5482507, 42.3152007 ], [ -85.5479984, 42.3161795 ], [ -85.5470409, 42.3177998 ], [ -85.5472243, 42.3185927 ], [ -85.547832, 42.319013 ], [ -85.5487742, 42.3186544 ], [ -85.5512745, 42.3178722 ], [ -85.552773, 42.317581 ], [ -85.5540209, 42.3174198 ], [ -85.5561046, 42.3169828 ], [ -85.5574065, 42.3173141 ], [ -85.560807, 42.314787 ] ] ] } },
{ "type": "Feature", "properties": { "element": "way", "id": 288631547, "addr:city": null, "addr:housenumber": null, "addr:postcode": null, "addr:state": null, "addr:street": null, "gnis:feature_id": "1615388", "leisure": "park", "name": "Upjohn Park", "note": null, "opening_hours": null, "website": null, "wikidata": "Q49573449", "ele": "232", "access": null, "operator": null, "description": null, "operator:type": null, "name:etymology:wikidata": null, "source": null, "type": null, "operator:wikidata": null }, "geometry": { "type": "Polygon", "coordinates": [ [ [ -85.5789312, 42.2838909 ], [ -85.5789304, 42.2838336 ], [ -85.5789262, 42.2835472 ], [ -85.5789109, 42.2834171 ], [ -85.5788854, 42.2833775 ], [ -85.5788829, 42.2833078 ], [ -85.5788591, 42.2832611 ], [ -85.5788466, 42.2831893 ], [ -85.5788727, 42.2831306 ], [ -85.5789033, 42.2830778 ], [ -85.5789033, 42.283025 ], [ -85.5789115, 42.2828897 ], [ -85.5789098, 42.2828595 ], [ -85.5787413, 42.2826774 ], [ -85.5787121, 42.2826459 ], [ -85.5786585, 42.2824711 ], [ -85.578594, 42.2821638 ], [ -85.5785216, 42.2819489 ], [ -85.5784831, 42.2817532 ], [ -85.5783618, 42.2815186 ], [ -85.5781838, 42.2811616 ], [ -85.577967, 42.2808166 ], [ -85.5778921, 42.2806968 ], [ -85.577786, 42.280501 ], [ -85.5776439, 42.2802025 ], [ -85.5775836, 42.2800777 ], [ -85.5775284, 42.2800563 ], [ -85.5773117, 42.2801938 ], [ -85.5767518, 42.2805737 ], [ -85.5764216, 42.2807817 ], [ -85.5763416, 42.2808543 ], [ -85.5762358, 42.2809707 ], [ -85.5761429, 42.2810662 ], [ -85.5760475, 42.2811883 ], [ -85.5760114, 42.2812666 ], [ -85.5759881, 42.2813296 ], [ -85.5759623, 42.281446 ], [ -85.5759598, 42.2815739 ], [ -85.5759675, 42.2816522 ], [ -85.5760139, 42.2819691 ], [ -85.5760391, 42.2821415 ], [ -85.5760743, 42.2822854 ], [ -85.5761213, 42.2824553 ], [ -85.5762435, 42.2829266 ], [ -85.5763771, 42.2834307 ], [ -85.5764768, 42.2838109 ], [ -85.5764971, 42.2838421 ], [ -85.5765208, 42.2838646 ], [ -85.5765512, 42.2838821 ], [ -85.576585, 42.2838871 ], [ -85.5787718, 42.2838891 ], [ -85.5789312, 42.2838909 ] ] ] } },
{ "type": "Feature", "properties": { "element": "way", "id": 288687457, "addr:city": null, "addr:housenumber": null, "addr:postcode": null, "addr:state": null, "addr:street": null, "gnis:feature_id": "624012", "leisure": "park", "name": "Crane Park", "note": null, "opening_hours": null, "website": null, "wikidata": "Q34860389", "ele": "268", "access": null, "operator": null, "description": null, "operator:type": null, "name:etymology:wikidata": null, "source": null, "type": null, "operator:wikidata": null }, "geometry": { "type": "Polygon", "coordinates": [ [ [ -85.5893953, 42.2710267 ], [ -85.5893625, 42.2710519 ], [ -85.5892982, 42.271064 ], [ -85.5892214, 42.2710677 ], [ -85.5885334, 42.2710584 ], [ -85.5884956, 42.2710453 ], [ -85.5884805, 42.271023 ], [ -85.5883412, 42.2710754 ], [ -85.5882157, 42.2711347 ], [ -85.5874909, 42.2711852 ], [ -85.5872456, 42.2711531 ], [ -85.5871721, 42.2711202 ], [ -85.5869775, 42.2710333 ], [ -85.5869124, 42.2707686 ], [ -85.5870158, 42.2702031 ], [ -85.5871164, 42.2700087 ], [ -85.5871245, 42.269993 ], [ -85.5872656, 42.2699224 ], [ -85.58889, 42.2699013 ], [ -85.5889139, 42.2699116 ], [ -85.5889467, 42.269933 ], [ -85.5889858, 42.2699423 ], [ -85.5890236, 42.2699386 ], [ -85.5890513, 42.2699283 ], [ -85.5890828, 42.2699162 ], [ -85.5891496, 42.2699162 ], [ -85.5891434, 42.269793 ], [ -85.5895493, 42.2697955 ], [ -85.5895505, 42.2702189 ], [ -85.5895424, 42.2704141 ], [ -85.5895333, 42.2705566 ], [ -85.5895195, 42.2706321 ], [ -85.5895012, 42.270683 ], [ -85.5894736, 42.2707331 ], [ -85.5894484, 42.2707874 ], [ -85.5894335, 42.2708553 ], [ -85.589406, 42.2709944 ], [ -85.5893953, 42.2710267 ] ] ] } },
{ "type": "Feature", "properties": { "element": "way", "id": 290277557, "addr:city": null, "addr:housenumber": null, "addr:postcode": null, "addr:state": null, "addr:street": null, "gnis:feature_id": null, "leisure": "park", "name": "Mayors' Riverfront Park", "note": null, "opening_hours": null, "website": null, "wikidata": null, "ele": null, "access": null, "operator": null, "description": null, "operator:type": null, "name:etymology:wikidata": null, "source": null, "type": null, "operator:wikidata": null }, "geometry": { "type": "Polygon", "coordinates": [ [ [ -85.5663905, 42.2923565 ], [ -85.56641, 42.2904895 ], [ -85.5639618, 42.2896573 ], [ -85.563898, 42.2897583 ], [ -85.5630827, 42.2895157 ], [ -85.5627775, 42.2894416 ], [ -85.5625042, 42.2893911 ], [ -85.5621444, 42.2893405 ], [ -85.5617481, 42.2893169 ], [ -85.5591133, 42.2893683 ], [ -85.5590147, 42.2894412 ], [ -85.5589259, 42.2894959 ], [ -85.5588619, 42.2895142 ], [ -85.558783, 42.2895287 ], [ -85.5587238, 42.2895761 ], [ -85.5587238, 42.2896272 ], [ -85.5587041, 42.2896855 ], [ -85.5586992, 42.2897512 ], [ -85.5587485, 42.2898861 ], [ -85.5587189, 42.2899299 ], [ -85.5587534, 42.2899991 ], [ -85.5587978, 42.2900356 ], [ -85.5588273, 42.2901085 ], [ -85.5587682, 42.2901632 ], [ -85.5587041, 42.2901815 ], [ -85.5586597, 42.2902398 ], [ -85.5587189, 42.2902836 ], [ -85.5588175, 42.290331 ], [ -85.5588569, 42.2904076 ], [ -85.5589604, 42.2905498 ], [ -85.5590097, 42.2906081 ], [ -85.5590787, 42.2906628 ], [ -85.5591379, 42.2907029 ], [ -85.5592217, 42.290754 ], [ -85.5592463, 42.2908196 ], [ -85.5593499, 42.2908451 ], [ -85.5594189, 42.2908816 ], [ -85.5595175, 42.2909436 ], [ -85.5596604, 42.2909837 ], [ -85.5598132, 42.2910275 ], [ -85.5599552, 42.2910736 ], [ -85.5600005, 42.2910967 ], [ -85.5600646, 42.2911296 ], [ -85.5601484, 42.2911259 ], [ -85.5602717, 42.2910931 ], [ -85.5603703, 42.2910712 ], [ -85.5604639, 42.2910785 ], [ -85.5605181, 42.2911113 ], [ -85.5605428, 42.2911697 ], [ -85.5606167, 42.2912463 ], [ -85.5607153, 42.2913119 ], [ -85.5608287, 42.2913374 ], [ -85.5609815, 42.2913848 ], [ -85.5611146, 42.2913994 ], [ -85.561297, 42.2914103 ], [ -85.5614399, 42.2914176 ], [ -85.5615583, 42.2914687 ], [ -85.5617061, 42.2914723 ], [ -85.5618688, 42.2914687 ], [ -85.5619723, 42.2914577 ], [ -85.5621941, 42.2914103 ], [ -85.5622681, 42.2914213 ], [ -85.5623092, 42.2914537 ], [ -85.562342, 42.2914796 ], [ -85.5623963, 42.291589 ], [ -85.5625293, 42.2916291 ], [ -85.562623, 42.2916218 ], [ -85.5627068, 42.2916364 ], [ -85.5628251, 42.2917166 ], [ -85.5629878, 42.291775 ], [ -85.5631258, 42.2917969 ], [ -85.563249, 42.2918115 ], [ -85.563392, 42.2918406 ], [ -85.5635399, 42.2919281 ], [ -85.5636828, 42.2919865 ], [ -85.563742, 42.2920521 ], [ -85.5637716, 42.2921178 ], [ -85.5639096, 42.2922126 ], [ -85.5641314, 42.2923219 ], [ -85.5642645, 42.2923766 ], [ -85.5643828, 42.2924423 ], [ -85.5645258, 42.2924715 ], [ -85.5646539, 42.292497 ], [ -85.5647821, 42.2925626 ], [ -85.5648758, 42.2925881 ], [ -85.5650236, 42.2926392 ], [ -85.5651863, 42.2926684 ], [ -85.5653342, 42.2926975 ], [ -85.5654574, 42.2927522 ], [ -85.565556, 42.2928069 ], [ -85.5656743, 42.292847 ], [ -85.5658173, 42.292847 ], [ -85.5659208, 42.2928324 ], [ -85.5659898, 42.2928288 ], [ -85.5660983, 42.2928288 ], [ -85.5662067, 42.2928689 ], [ -85.5662856, 42.2929054 ], [ -85.566325, 42.2929309 ], [ -85.5663842, 42.2929564 ], [ -85.5663728, 42.2928823 ], [ -85.5663905, 42.2923565 ] ] ] } },
{ "type": "Feature", "properties": { "element": "way", "id": 291219896, "addr:city": null, "addr:housenumber": null, "addr:postcode": null, "addr:state": null, "addr:street": null, "gnis:feature_id": "632309", "leisure": "park", "name": "Milham Park", "note": null, "opening_hours": null, "website": null, "wikidata": "Q49526275", "ele": "260", "access": null, "operator": null, "description": null, "operator:type": null, "name:etymology:wikidata": null, "source": null, "type": null, "operator:wikidata": null }, "geometry": { "type": "Polygon", "coordinates": [ [ [ -85.5669826, 42.2451073 ], [ -85.5721462, 42.2451538 ], [ -85.5722333, 42.2451723 ], [ -85.5749087, 42.2451863 ], [ -85.5796393, 42.2451482 ], [ -85.579724, 42.2452074 ], [ -85.5797579, 42.2452462 ], [ -85.579786, 42.2522158 ], [ -85.5721598, 42.2521613 ], [ -85.5739042, 42.2499551 ], [ -85.5740338, 42.2497528 ], [ -85.5741403, 42.2495368 ], [ -85.5742422, 42.2492454 ], [ -85.5743765, 42.248642 ], [ -85.5744414, 42.2483815 ], [ -85.5743113, 42.2483586 ], [ -85.5734479, 42.248141 ], [ -85.5727633, 42.2480312 ], [ -85.5725565, 42.2479821 ], [ -85.5721765, 42.2478114 ], [ -85.5716922, 42.2475892 ], [ -85.5710575, 42.2475986 ], [ -85.5708403, 42.2474911 ], [ -85.57075, 42.2474464 ], [ -85.5706249, 42.2473845 ], [ -85.5704219, 42.2472841 ], [ -85.5702401, 42.2471498 ], [ -85.5701676, 42.2470321 ], [ -85.5700975, 42.2468463 ], [ -85.5700323, 42.2467101 ], [ -85.5700369, 42.2466327 ], [ -85.5700703, 42.2465876 ], [ -85.5701147, 42.2465275 ], [ -85.570536, 42.2461918 ], [ -85.5696253, 42.2461705 ], [ -85.5692269, 42.2463465 ], [ -85.5687449, 42.2459833 ], [ -85.5679703, 42.2455883 ], [ -85.5673592, 42.2455055 ], [ -85.5669826, 42.2451073 ] ] ] } },
{ "type": "Feature", "properties": { "element": "way", "id": 291932461, "addr:city": null, "addr:housenumber": null, "addr:postcode": null, "addr:state": null, "addr:street": null, "gnis:feature_id": null, "leisure": "park", "name": "Verburg Park", "note": null, "opening_hours": null, "website": null, "wikidata": "Q79882821", "ele": null, "access": null, "operator": null, "description": null, "operator:type": null, "name:etymology:wikidata": null, "source": null, "type": null, "operator:wikidata": null }, "geometry": { "type": "Polygon", "coordinates": [ [ [ -85.5733801, 42.3031657 ], [ -85.5736058, 42.3015613 ], [ -85.5737071, 42.3001408 ], [ -85.574246, 42.3001204 ], [ -85.5741953, 42.2984852 ], [ -85.5728044, 42.2985193 ], [ -85.5723529, 42.2988567 ], [ -85.5723876, 42.2988818 ], [ -85.5725473, 42.2989745 ], [ -85.5727126, 42.2991685 ], [ -85.5728951, 42.2993372 ], [ -85.5729863, 42.2994722 ], [ -85.5731003, 42.2996662 ], [ -85.5731802, 42.2998349 ], [ -85.5731802, 42.2999656 ], [ -85.573146, 42.3001132 ], [ -85.5731288, 42.3003199 ], [ -85.5731117, 42.3004885 ], [ -85.5730319, 42.3006488 ], [ -85.5728837, 42.3008048 ], [ -85.5727126, 42.3009482 ], [ -85.5725188, 42.3010663 ], [ -85.5723762, 42.3011675 ], [ -85.5722223, 42.3012898 ], [ -85.5718231, 42.3015428 ], [ -85.5716863, 42.301623 ], [ -85.5715357, 42.3017622 ], [ -85.5714388, 42.3018895 ], [ -85.571385, 42.3020527 ], [ -85.5713044, 42.3022237 ], [ -85.5712882, 42.302351 ], [ -85.5713097, 42.3025818 ], [ -85.5712613, 42.3027051 ], [ -85.5712075, 42.3028404 ], [ -85.5711968, 42.3029637 ], [ -85.5712398, 42.3031229 ], [ -85.5712398, 42.3031555 ], [ -85.5733801, 42.3031657 ] ] ] } },
{ "type": "Feature", "properties": { "element": "way", "id": 453325208, "addr:city": "Kalamazoo", "addr:housenumber": null, "addr:postcode": null, "addr:state": "MI", "addr:street": null, "gnis:feature_id": null, "leisure": "park", "name": "Sherwood Park", "note": null, "opening_hours": null, "website": null, "wikidata": "Q79871465", "ele": null, "access": null, "operator": null, "description": null, "operator:type": null, "name:etymology:wikidata": null, "source": null, "type": null, "operator:wikidata": null }, "geometry": { "type": "Polygon", "coordinates": [ [ [ -85.5554901, 42.2950891 ], [ -85.5554901, 42.2939419 ], [ -85.5550234, 42.2940013 ], [ -85.5546803, 42.2940136 ], [ -85.5543949, 42.2939784 ], [ -85.5539835, 42.2939346 ], [ -85.5537531, 42.2939423 ], [ -85.5534183, 42.2939981 ], [ -85.5534299, 42.2941453 ], [ -85.5533486, 42.2947038 ], [ -85.5532791, 42.2948712 ], [ -85.5534253, 42.2950375 ], [ -85.5535114, 42.2950812 ], [ -85.5535846, 42.2950998 ], [ -85.5536817, 42.2951125 ], [ -85.5541337, 42.2951087 ], [ -85.5554901, 42.2950891 ] ] ] } },
{ "type": "Feature", "properties": { "element": "way", "id": 468463325, "addr:city": null, "addr:housenumber": null, "addr:postcode": null, "addr:state": null, "addr:street": null, "gnis:feature_id": null, "leisure": "park", "name": null, "note": null, "opening_hours": null, "website": null, "wikidata": null, "ele": null, "access": null, "operator": null, "description": null, "operator:type": null, "name:etymology:wikidata": null, "source": null, "type": null, "operator:wikidata": null }, "geometry": { "type": "Polygon", "coordinates": [ [ [ -85.5595798, 42.2589266 ], [ -85.5590944, 42.2589246 ], [ -85.5590756, 42.2588829 ], [ -85.5588449, 42.258873 ], [ -85.5588476, 42.2587737 ], [ -85.5589066, 42.2587618 ], [ -85.5589549, 42.2581782 ], [ -85.5591319, 42.2581801 ], [ -85.5591507, 42.2582317 ], [ -85.5597381, 42.2582357 ], [ -85.5597327, 42.2584045 ], [ -85.5595584, 42.2584223 ], [ -85.5595798, 42.2589266 ] ] ] } },
{ "type": "Feature", "properties": { "element": "way", "id": 468464266, "addr:city": null, "addr:housenumber": null, "addr:postcode": null, "addr:state": null, "addr:street": null, "gnis:feature_id": null, "leisure": "park", "name": null, "note": null, "opening_hours": null, "website": null, "wikidata": null, "ele": null, "access": null, "operator": null, "description": null, "operator:type": null, "name:etymology:wikidata": null, "source": null, "type": null, "operator:wikidata": null }, "geometry": { "type": "Polygon", "coordinates": [ [ [ -85.5820498, 42.2460334 ], [ -85.5821268, 42.2459923 ], [ -85.5820837, 42.2456308 ], [ -85.5816693, 42.2456502 ], [ -85.5816554, 42.2455989 ], [ -85.5811783, 42.2456008 ], [ -85.5811147, 42.2455955 ], [ -85.581127, 42.2458954 ], [ -85.5815584, 42.2459889 ], [ -85.5816092, 42.2459399 ], [ -85.5820498, 42.2460334 ] ] ] } },
{ "type": "Feature", "properties": { "element": "way", "id": 468464952, "addr:city": null, "addr:housenumber": null, "addr:postcode": null, "addr:state": null, "addr:street": null, "gnis:feature_id": null, "leisure": "park", "name": null, "note": null, "opening_hours": null, "website": null, "wikidata": null, "ele": null, "access": null, "operator": null, "description": null, "operator:type": null, "name:etymology:wikidata": null, "source": null, "type": null, "operator:wikidata": null }, "geometry": { "type": "Polygon", "coordinates": [ [ [ -85.5842424, 42.2467231 ], [ -85.5842411, 42.2465106 ], [ -85.5836912, 42.2465017 ], [ -85.5836885, 42.2468273 ], [ -85.5839031, 42.2468363 ], [ -85.5839071, 42.2467241 ], [ -85.5842424, 42.2467231 ] ] ] } },
{ "type": "Feature", "properties": { "element": "way", "id": 468477231, "addr:city": null, "addr:housenumber": null, "addr:postcode": null, "addr:state": null, "addr:street": null, "gnis:feature_id": null, "leisure": "park", "name": null, "note": null, "opening_hours": null, "website": null, "wikidata": null, "ele": null, "access": null, "operator": null, "description": null, "operator:type": null, "name:etymology:wikidata": null, "source": null, "type": null, "operator:wikidata": null }, "geometry": { "type": "Polygon", "coordinates": [ [ [ -85.5406284, 42.2631606 ], [ -85.5407447, 42.2596302 ], [ -85.5448062, 42.2596772 ], [ -85.544986, 42.2607105 ], [ -85.5451341, 42.2618847 ], [ -85.5453351, 42.2632545 ], [ -85.5406284, 42.2631606 ] ] ] } },
{ "type": "Feature", "properties": { "element": "way", "id": 468477597, "addr:city": null, "addr:housenumber": null, "addr:postcode": null, "addr:state": null, "addr:street": null, "gnis:feature_id": null, "leisure": "park", "name": null, "note": null, "opening_hours": null, "website": null, "wikidata": null, "ele": null, "access": null, "operator": null, "description": null, "operator:type": null, "name:etymology:wikidata": null, "source": null, "type": null, "operator:wikidata": null }, "geometry": { "type": "Polygon", "coordinates": [ [ [ -85.5932873, 42.2476669 ], [ -85.593407, 42.2469615 ], [ -85.5942909, 42.2470058 ], [ -85.5944198, 42.2476771 ], [ -85.5932873, 42.2476669 ] ] ] } },
{ "type": "Feature", "properties": { "element": "way", "id": 468478837, "addr:city": null, "addr:housenumber": null, "addr:postcode": null, "addr:state": null, "addr:street": null, "gnis:feature_id": null, "leisure": "park", "name": null, "note": null, "opening_hours": null, "website": null, "wikidata": null, "ele": null, "access": null, "operator": null, "description": null, "operator:type": null, "name:etymology:wikidata": null, "source": null, "type": null, "operator:wikidata": null }, "geometry": { "type": "Polygon", "coordinates": [ [ [ -85.6134462, 42.2522146 ], [ -85.6120708, 42.2521446 ], [ -85.6116324, 42.2520747 ], [ -85.6115292, 42.2519029 ], [ -85.6109705, 42.2518392 ], [ -85.6109103, 42.2516738 ], [ -85.6109705, 42.2513493 ], [ -85.6112542, 42.2509166 ], [ -85.6112714, 42.250573 ], [ -85.6102398, 42.2504966 ], [ -85.6099905, 42.2501085 ], [ -85.6095349, 42.2499303 ], [ -85.6094575, 42.2495867 ], [ -85.6093544, 42.2489122 ], [ -85.6140737, 42.2488549 ], [ -85.614048, 42.252011 ], [ -85.6137127, 42.2520492 ], [ -85.6135236, 42.2520937 ], [ -85.6134462, 42.2522146 ] ] ] } },
{ "type": "Feature", "properties": { "element": "way", "id": 468844313, "addr:city": null, "addr:housenumber": null, "addr:postcode": null, "addr:state": null, "addr:street": null, "gnis:feature_id": null, "leisure": "park", "name": null, "note": null, "opening_hours": null, "website": null, "wikidata": null, "ele": null, "access": null, "operator": null, "description": null, "operator:type": null, "name:etymology:wikidata": null, "source": null, "type": null, "operator:wikidata": null }, "geometry": { "type": "Polygon", "coordinates": [ [ [ -85.5571862, 42.2594535 ], [ -85.5571728, 42.2593161 ], [ -85.557736, 42.2593168 ], [ -85.557734, 42.25898 ], [ -85.5566393, 42.2589826 ], [ -85.5566354, 42.2594582 ], [ -85.5571862, 42.2594535 ] ] ] } },
{ "type": "Feature", "properties": { "element": "way", "id": 468844656, "addr:city": null, "addr:housenumber": null, "addr:postcode": null, "addr:state": null, "addr:street": null, "gnis:feature_id": null, "leisure": "park", "name": null, "note": null, "opening_hours": null, "website": null, "wikidata": null, "ele": null, "access": null, "operator": null, "description": null, "operator:type": null, "name:etymology:wikidata": null, "source": null, "type": null, "operator:wikidata": null }, "geometry": { "type": "Polygon", "coordinates": [ [ [ -85.5553914, 42.2613847 ], [ -85.5554068, 42.2607512 ], [ -85.5542114, 42.260758 ], [ -85.5542144, 42.2613847 ], [ -85.5553914, 42.2613847 ] ] ] } },
{ "type": "Feature", "properties": { "element": "way", "id": 482482869, "addr:city": null, "addr:housenumber": null, "addr:postcode": null, "addr:state": null, "addr:street": null, "gnis:feature_id": null, "leisure": "park", "name": null, "note": null, "opening_hours": null, "website": null, "wikidata": null, "ele": null, "access": null, "operator": null, "description": null, "operator:type": null, "name:etymology:wikidata": null, "source": null, "type": null, "operator:wikidata": null }, "geometry": { "type": "Polygon", "coordinates": [ [ [ -85.6407977, 42.2810694 ], [ -85.6408038, 42.2804973 ], [ -85.64081, 42.2804596 ], [ -85.6408362, 42.280422 ], [ -85.6408809, 42.2803935 ], [ -85.6409194, 42.2803764 ], [ -85.6409625, 42.2803685 ], [ -85.6414354, 42.2803685 ], [ -85.6414632, 42.2803742 ], [ -85.6414986, 42.2803844 ], [ -85.6415325, 42.2803992 ], [ -85.6415602, 42.2804243 ], [ -85.6415818, 42.2804528 ], [ -85.6415957, 42.2804779 ], [ -85.6415957, 42.2805098 ], [ -85.641588, 42.281074 ], [ -85.6407977, 42.2810694 ] ] ] } },
{ "type": "Feature", "properties": { "element": "way", "id": 486669993, "addr:city": null, "addr:housenumber": null, "addr:postcode": null, "addr:state": null, "addr:street": null, "gnis:feature_id": null, "leisure": "park", "name": "Kleinstuck Preserve", "note": null, "opening_hours": "sunrise-sunset", "website": "https://www.stewardsofkleinstuck.org/", "wikidata": null, "ele": null, "access": "yes", "operator": "Stewards of Kleinstuck", "description": "Nature Preserve", "operator:type": "public", "name:etymology:wikidata": null, "source": null, "type": null, "operator:wikidata": null }, "geometry": { "type": "Polygon", "coordinates": [ [ [ -85.6013582, 42.2669604 ], [ -85.6025189, 42.2669879 ], [ -85.604368, 42.2669731 ], [ -85.6043481, 42.265656 ], [ -85.6055399, 42.265686 ], [ -85.6055302, 42.266958 ], [ -85.6056057, 42.2669579 ], [ -85.6056125, 42.2673579 ], [ -85.6055761, 42.2675575 ], [ -85.6055517, 42.2684128 ], [ -85.6042835, 42.2683927 ], [ -85.6042453, 42.2706366 ], [ -85.6022655, 42.2706121 ], [ -85.6018231, 42.2706121 ], [ -85.5995244, 42.2705703 ], [ -85.5995728, 42.2669596 ], [ -85.6003575, 42.2669545 ], [ -85.6013582, 42.2669604 ] ] ] } },
{ "type": "Feature", "properties": { "element": "way", "id": 583263214, "addr:city": null, "addr:housenumber": null, "addr:postcode": null, "addr:state": null, "addr:street": null, "gnis:feature_id": null, "leisure": "park", "name": "Tyler Little Tedrow Garden", "note": null, "opening_hours": null, "website": null, "wikidata": null, "ele": null, "access": null, "operator": null, "description": null, "operator:type": null, "name:etymology:wikidata": null, "source": null, "type": null, "operator:wikidata": null }, "geometry": { "type": "Polygon", "coordinates": [ [ [ -85.6010223, 42.2916222 ], [ -85.6012241, 42.2916359 ], [ -85.6012155, 42.2917045 ], [ -85.6014339, 42.2917193 ], [ -85.6014543, 42.2915554 ], [ -85.6010342, 42.2915268 ], [ -85.6010223, 42.2916222 ] ] ] } },
{ "type": "Feature", "properties": { "element": "way", "id": 635104375, "addr:city": "Kalamazoo", "addr:housenumber": null, "addr:postcode": null, "addr:state": "MI", "addr:street": null, "gnis:feature_id": null, "leisure": "park", "name": "Martin Luther King Jr. Memorial Park", "note": null, "opening_hours": null, "website": null, "wikidata": "Q79872407", "ele": null, "access": null, "operator": null, "description": null, "operator:type": null, "name:etymology:wikidata": "Q8027", "source": null, "type": null, "operator:wikidata": null }, "geometry": { "type": "Polygon", "coordinates": [ [ [ -85.5860956, 42.2961997 ], [ -85.5860824, 42.2957828 ], [ -85.5850737, 42.2957899 ], [ -85.5850859, 42.2962059 ], [ -85.5860956, 42.2961997 ] ] ] } },
{ "type": "Feature", "properties": { "element": "way", "id": 635112713, "addr:city": null, "addr:housenumber": null, "addr:postcode": null, "addr:state": null, "addr:street": null, "gnis:feature_id": null, "leisure": "park", "name": "Dino Park", "note": null, "opening_hours": null, "website": null, "wikidata": null, "ele": null, "access": null, "operator": null, "description": null, "operator:type": null, "name:etymology:wikidata": null, "source": null, "type": null, "operator:wikidata": null }, "geometry": { "type": "Polygon", "coordinates": [ [ [ -85.6170496, 42.2838489 ], [ -85.6169245, 42.2838808 ], [ -85.616844, 42.2839014 ], [ -85.6167859, 42.2839153 ], [ -85.6168051, 42.2839486 ], [ -85.6166646, 42.2839847 ], [ -85.6165022, 42.2840313 ], [ -85.6164558, 42.2840426 ], [ -85.6164145, 42.283988 ], [ -85.6164758, 42.2838705 ], [ -85.6165035, 42.2838174 ], [ -85.6165303, 42.283766 ], [ -85.6165443, 42.2837393 ], [ -85.6165757, 42.2836791 ], [ -85.6165771, 42.283594 ], [ -85.616635, 42.2835589 ], [ -85.6166481, 42.2835627 ], [ -85.6167388, 42.2835127 ], [ -85.6167339, 42.2835033 ], [ -85.6167869, 42.2834744 ], [ -85.6168641, 42.2834323 ], [ -85.6168464, 42.2833356 ], [ -85.6168379, 42.2832977 ], [ -85.6168121, 42.283311 ], [ -85.6168074, 42.2833014 ], [ -85.6168471, 42.2832806 ], [ -85.6168604, 42.2832974 ], [ -85.6168776, 42.2833281 ], [ -85.6168848, 42.2833515 ], [ -85.6168904, 42.2833719 ], [ -85.6168914, 42.2834013 ], [ -85.6168907, 42.2834212 ], [ -85.6168795, 42.2834485 ], [ -85.616867, 42.2834664 ], [ -85.616852, 42.2834836 ], [ -85.6168197, 42.2835057 ], [ -85.6168157, 42.2835208 ], [ -85.6168418, 42.2835156 ], [ -85.6168767, 42.2834988 ], [ -85.6169202, 42.2835952 ], [ -85.6170496, 42.2838489 ] ] ] } },
{ "type": "Feature", "properties": { "element": "way", "id": 745137614, "addr:city": "Kalamazoo", "addr:housenumber": null, "addr:postcode": "49008", "addr:state": "MI", "addr:street": null, "gnis:feature_id": null, "leisure": "park", "name": "Davis Street Park", "note": null, "opening_hours": null, "website": null, "wikidata": "Q79871664", "ele": null, "access": null, "operator": null, "description": null, "operator:type": null, "name:etymology:wikidata": null, "source": null, "type": null, "operator:wikidata": null }, "geometry": { "type": "Polygon", "coordinates": [ [ [ -85.5952555, 42.282307 ], [ -85.5944912, 42.2823009 ], [ -85.5944994, 42.2817701 ], [ -85.5952454, 42.281752 ], [ -85.5952494, 42.2819024 ], [ -85.5952555, 42.282307 ] ] ] } },
{ "type": "Feature", "properties": { "element": "way", "id": 745147013, "addr:city": null, "addr:housenumber": null, "addr:postcode": null, "addr:state": null, "addr:street": null, "gnis:feature_id": null, "leisure": "park", "name": null, "note": null, "opening_hours": null, "website": null, "wikidata": null, "ele": null, "access": null, "operator": null, "description": null, "operator:type": null, "name:etymology:wikidata": null, "source": null, "type": null, "operator:wikidata": null }, "geometry": { "type": "Polygon", "coordinates": [ [ [ -85.5979765, 42.2808822 ], [ -85.599331, 42.2808861 ], [ -85.5994383, 42.2808445 ], [ -85.5994705, 42.2807889 ], [ -85.5994276, 42.2806758 ], [ -85.5993337, 42.2805329 ], [ -85.5992935, 42.2804853 ], [ -85.5992049, 42.2805885 ], [ -85.5990789, 42.28065 ], [ -85.5989019, 42.2806639 ], [ -85.5986953, 42.2806043 ], [ -85.5985532, 42.2805408 ], [ -85.5983815, 42.2805825 ], [ -85.5981347, 42.2805984 ], [ -85.5979577, 42.2805885 ], [ -85.5979765, 42.2808822 ] ] ] } },
{ "type": "Feature", "properties": { "element": "way", "id": 745166462, "addr:city": "Kalamazoo", "addr:housenumber": "302", "addr:postcode": "49007", "addr:state": "MI", "addr:street": "Academy Street", "gnis:feature_id": null, "leisure": "park", "name": "Children's Nature Playscape", "note": null, "opening_hours": null, "website": "https://www.kalamazooplayscape.org/home", "wikidata": null, "ele": null, "access": null, "operator": "Kalamazoo Playscape", "description": null, "operator:type": "ngo", "name:etymology:wikidata": null, "source": "local knowledge;osm notes", "type": null, "operator:wikidata": null }, "geometry": { "type": "Polygon", "coordinates": [ [ [ -85.586192, 42.2907863 ], [ -85.5862286, 42.2910994 ], [ -85.5866522, 42.291086 ], [ -85.5866437, 42.2907762 ], [ -85.586192, 42.2907863 ] ] ] } },
{ "type": "Feature", "properties": { "element": "way", "id": 758758597, "addr:city": "Kalamazoo", "addr:housenumber": null, "addr:postcode": null, "addr:state": "MI", "addr:street": "East Michigan Avenue", "gnis:feature_id": null, "leisure": "park", "name": "Rose Park Veterans Memorial", "note": null, "opening_hours": null, "website": null, "wikidata": "Q79870591", "ele": null, "access": null, "operator": null, "description": null, "operator:type": null, "name:etymology:wikidata": null, "source": null, "type": null, "operator:wikidata": null }, "geometry": { "type": "Polygon", "coordinates": [ [ [ -85.5734491, 42.2948446 ], [ -85.5734713, 42.2948819 ], [ -85.5733509, 42.2951123 ], [ -85.5733298, 42.2951094 ], [ -85.573221, 42.2951563 ], [ -85.5731002, 42.2951988 ], [ -85.5729763, 42.2952346 ], [ -85.5729068, 42.2952279 ], [ -85.5728433, 42.2952033 ], [ -85.5728282, 42.2951653 ], [ -85.5728191, 42.2951318 ], [ -85.5727527, 42.2950982 ], [ -85.5725548, 42.2949666 ], [ -85.5725353, 42.2949541 ], [ -85.5725212, 42.2949139 ], [ -85.5725011, 42.2948747 ], [ -85.5734491, 42.2948446 ] ] ] } },
{ "type": "Feature", "properties": { "element": "way", "id": 758764704, "addr:city": "Kalamazoo", "addr:housenumber": null, "addr:postcode": null, "addr:state": "MI", "addr:street": "Springmont Avenue", "gnis:feature_id": null, "leisure": "park", "name": "Springmont Tot Lot", "note": null, "opening_hours": null, "website": null, "wikidata": "Q79871943", "ele": null, "access": null, "operator": null, "description": null, "operator:type": null, "name:etymology:wikidata": null, "source": null, "type": null, "operator:wikidata": null }, "geometry": { "type": "Polygon", "coordinates": [ [ [ -85.6197809, 42.2559316 ], [ -85.6196021, 42.2559287 ], [ -85.619618, 42.2553753 ], [ -85.619797, 42.2553781 ], [ -85.6197809, 42.2559316 ] ] ] } },
{ "type": "Feature", "properties": { "element": "way", "id": 758768866, "addr:city": "Kalamazoo", "addr:housenumber": null, "addr:postcode": null, "addr:state": "MI", "addr:street": "Trimble Avenue", "gnis:feature_id": "636093", "leisure": "park", "name": "Rockwell Park", "note": null, "opening_hours": null, "website": null, "wikidata": "Q79872628", "ele": "251", "access": null, "operator": null, "description": null, "operator:type": null, "name:etymology:wikidata": null, "source": null, "type": null, "operator:wikidata": null }, "geometry": { "type": "Polygon", "coordinates": [ [ [ -85.5568491, 42.3026888 ], [ -85.557416, 42.3027927 ], [ -85.5576984, 42.3028506 ], [ -85.5579999, 42.3028956 ], [ -85.5584965, 42.3027752 ], [ -85.5585807, 42.3026547 ], [ -85.5585752, 42.3024219 ], [ -85.5581627, 42.3024259 ], [ -85.5581627, 42.3020686 ], [ -85.5581137, 42.3020685 ], [ -85.5576862, 42.3020677 ], [ -85.5576034, 42.3020675 ], [ -85.5574075, 42.3020953 ], [ -85.5557113, 42.3021099 ], [ -85.555717, 42.3027123 ], [ -85.5568491, 42.3026888 ] ] ] } },
{ "type": "Feature", "properties": { "element": "way", "id": 758773465, "addr:city": "Kalamazoo", "addr:housenumber": null, "addr:postcode": null, "addr:state": "MI", "addr:street": "Henderson Court", "gnis:feature_id": null, "leisure": "park", "name": "Henderson Tot Lot", "note": null, "opening_hours": null, "website": null, "wikidata": "Q79872844", "ele": null, "access": null, "operator": null, "description": null, "operator:type": null, "name:etymology:wikidata": null, "source": null, "type": null, "operator:wikidata": null }, "geometry": { "type": "Polygon", "coordinates": [ [ [ -85.6081849, 42.2910098 ], [ -85.6082563, 42.2908598 ], [ -85.6082563, 42.2907674 ], [ -85.6081441, 42.2906703 ], [ -85.6080129, 42.2906203 ], [ -85.6078624, 42.2906062 ], [ -85.6076814, 42.2906373 ], [ -85.6074788, 42.2907071 ], [ -85.6072825, 42.2907938 ], [ -85.6070722, 42.2909306 ], [ -85.607053, 42.2909598 ], [ -85.6071219, 42.2909834 ], [ -85.6072825, 42.2910126 ], [ -85.6075221, 42.2910249 ], [ -85.6080741, 42.2909961 ], [ -85.6081849, 42.2910098 ] ] ] } },
{ "type": "Feature", "properties": { "element": "way", "id": 758774412, "addr:city": "Kalamazoo", "addr:housenumber": null, "addr:postcode": null, "addr:state": "MI", "addr:street": null, "gnis:feature_id": null, "leisure": "park", "name": "Krom & Prouty Park", "note": null, "opening_hours": null, "website": null, "wikidata": "Q79873115", "ele": null, "access": null, "operator": null, "description": null, "operator:type": null, "name:etymology:wikidata": null, "source": null, "type": null, "operator:wikidata": null }, "geometry": { "type": "Polygon", "coordinates": [ [ [ -85.5821895, 42.3077302 ], [ -85.5817093, 42.3077258 ], [ -85.5817176, 42.3072365 ], [ -85.5821977, 42.3072409 ], [ -85.5821895, 42.3077302 ] ] ] } },
{ "type": "Feature", "properties": { "element": "way", "id": 758774996, "addr:city": "Kalamazoo", "addr:housenumber": null, "addr:postcode": null, "addr:state": "MI", "addr:street": null, "gnis:feature_id": null, "leisure": "park", "name": "Axtell Creek Park", "note": null, "opening_hours": null, "website": null, "wikidata": "Q79873363", "ele": null, "access": null, "operator": null, "description": null, "operator:type": null, "name:etymology:wikidata": null, "source": null, "type": null, "operator:wikidata": null }, "geometry": { "type": "Polygon", "coordinates": [ [ [ -85.5903728, 42.2769488 ], [ -85.5904066, 42.2766826 ], [ -85.5906542, 42.2765542 ], [ -85.5911573, 42.2760891 ], [ -85.591193, 42.2760561 ], [ -85.5913957, 42.2761788 ], [ -85.5913449, 42.2762219 ], [ -85.591454, 42.2763887 ], [ -85.5911865, 42.2767795 ], [ -85.5912586, 42.2769501 ], [ -85.5903728, 42.2769488 ] ] ] } },
{ "type": "Feature", "properties": { "element": "way", "id": 758780205, "addr:city": "Kalamazoo", "addr:housenumber": null, "addr:postcode": null, "addr:state": "MI", "addr:street": "West Dutton Street", "gnis:feature_id": null, "leisure": "park", "name": "Dutton Street Park", "note": null, "opening_hours": null, "website": null, "wikidata": "Q79873657", "ele": null, "access": null, "operator": null, "description": null, "operator:type": null, "name:etymology:wikidata": null, "source": null, "type": null, "operator:wikidata": null }, "geometry": { "type": "Polygon", "coordinates": [ [ [ -85.5859757, 42.2852126 ], [ -85.5859468, 42.2856459 ], [ -85.5852892, 42.2856243 ], [ -85.5852864, 42.2852058 ], [ -85.5859757, 42.2852126 ] ] ] } },
{ "type": "Feature", "properties": { "element": "way", "id": 758781558, "addr:city": "Kalamazoo", "addr:housenumber": null, "addr:postcode": null, "addr:state": "MI", "addr:street": "West Main Street", "gnis:feature_id": null, "leisure": "park", "name": "West Main Park", "note": null, "opening_hours": null, "website": null, "wikidata": "Q79874043", "ele": null, "access": null, "operator": null, "description": null, "operator:type": null, "name:etymology:wikidata": null, "source": null, "type": null, "operator:wikidata": null }, "geometry": { "type": "Polygon", "coordinates": [ [ [ -85.5942006, 42.2919943 ], [ -85.594624, 42.291686 ], [ -85.59425, 42.2916383 ], [ -85.5942359, 42.2916475 ], [ -85.5942148, 42.2916612 ], [ -85.5941897, 42.2917536 ], [ -85.5942006, 42.2919943 ] ] ] } },
{ "type": "Feature", "properties": { "element": "way", "id": 758782143, "addr:city": "Kalamazoo", "addr:housenumber": null, "addr:postcode": null, "addr:state": "MI", "addr:street": null, "gnis:feature_id": null, "leisure": "park", "name": "Henderson Park", "note": null, "opening_hours": null, "website": null, "wikidata": null, "ele": null, "access": null, "operator": null, "description": null, "operator:type": null, "name:etymology:wikidata": null, "source": null, "type": null, "operator:wikidata": null }, "geometry": { "type": "Polygon", "coordinates": [ [ [ -85.6063263, 42.2921874 ], [ -85.6060604, 42.2921135 ], [ -85.6055184, 42.2920233 ], [ -85.6054693, 42.2920033 ], [ -85.605449, 42.2919594 ], [ -85.6054693, 42.2919381 ], [ -85.6059181, 42.2918166 ], [ -85.6062534, 42.291759 ], [ -85.6066125, 42.2917327 ], [ -85.6066904, 42.2917352 ], [ -85.6067226, 42.291764 ], [ -85.6066836, 42.2918066 ], [ -85.6064465, 42.2920333 ], [ -85.6063585, 42.2921712 ], [ -85.6063263, 42.2921874 ] ] ] } },
{ "type": "Feature", "properties": { "element": "way", "id": 760837692, "addr:city": null, "addr:housenumber": null, "addr:postcode": null, "addr:state": null, "addr:street": null, "gnis:feature_id": "2627746", "leisure": "park", "name": "Princeton Park", "note": null, "opening_hours": null, "website": null, "wikidata": "Q49546205", "ele": null, "access": null, "operator": null, "description": null, "operator:type": null, "name:etymology:wikidata": null, "source": null, "type": null, "operator:wikidata": null }, "geometry": { "type": "Polygon", "coordinates": [ [ [ -85.5887419, 42.3064158 ], [ -85.5887391, 42.3062453 ], [ -85.5883167, 42.3062491 ], [ -85.5883194, 42.3064196 ], [ -85.5887419, 42.3064158 ] ] ] } },
{ "type": "Feature", "properties": { "element": "way", "id": 795478942, "addr:city": null, "addr:housenumber": null, "addr:postcode": null, "addr:state": null, "addr:street": null, "gnis:feature_id": null, "leisure": "park", "name": "Academy Park", "note": null, "opening_hours": null, "website": null, "wikidata": null, "ele": null, "access": null, "operator": "City of Kalamazoo", "description": null, "operator:type": null, "name:etymology:wikidata": null, "source": null, "type": null, "operator:wikidata": null }, "geometry": { "type": "Polygon", "coordinates": [ [ [ -85.6110076, 42.290787 ], [ -85.6109721, 42.2908078 ], [ -85.6108486, 42.2908159 ], [ -85.6101456, 42.2908114 ], [ -85.6094816, 42.2908078 ], [ -85.6091283, 42.2908041 ], [ -85.6090989, 42.2907906 ], [ -85.6090806, 42.2907698 ], [ -85.6090256, 42.290512 ], [ -85.6091296, 42.2902002 ], [ -85.6092872, 42.290256 ], [ -85.6094963, 42.2903573 ], [ -85.6096198, 42.2903944 ], [ -85.6097494, 42.2904279 ], [ -85.6099365, 42.2904586 ], [ -85.6101945, 42.2904993 ], [ -85.610686, 42.290578 ], [ -85.6107716, 42.2906006 ], [ -85.6108401, 42.2906223 ], [ -85.6109024, 42.2906504 ], [ -85.6109489, 42.2906793 ], [ -85.6109807, 42.2907037 ], [ -85.61101, 42.2907245 ], [ -85.6110247, 42.2907462 ], [ -85.6110247, 42.2907661 ], [ -85.6110198, 42.2907779 ], [ -85.6110076, 42.290787 ] ] ] } },
{ "type": "Feature", "properties": { "element": "way", "id": 874440396, "addr:city": null, "addr:housenumber": null, "addr:postcode": null, "addr:state": null, "addr:street": null, "gnis:feature_id": null, "leisure": "park", "name": null, "note": null, "opening_hours": null, "website": null, "wikidata": null, "ele": null, "access": null, "operator": null, "description": null, "operator:type": null, "name:etymology:wikidata": null, "source": null, "type": null, "operator:wikidata": null }, "geometry": { "type": "Polygon", "coordinates": [ [ [ -85.6054758, 42.3044684 ], [ -85.6055488, 42.304389 ], [ -85.6054121, 42.30403 ], [ -85.6052183, 42.304029 ], [ -85.6053577, 42.3044044 ], [ -85.6054758, 42.3044684 ] ] ] } },
{ "type": "Feature", "properties": { "element": "way", "id": 928558907, "addr:city": null, "addr:housenumber": null, "addr:postcode": null, "addr:state": null, "addr:street": null, "gnis:feature_id": "625849", "leisure": "park", "name": "Farrel Park", "note": null, "opening_hours": null, "website": null, "wikidata": "Q49488518", "ele": "236", "access": null, "operator": null, "description": null, "operator:type": null, "name:etymology:wikidata": null, "source": null, "type": null, "operator:wikidata": null }, "geometry": { "type": "Polygon", "coordinates": [ [ [ -85.5851174, 42.2990555 ], [ -85.5851536, 42.3003182 ], [ -85.5856994, 42.3003103 ], [ -85.585686, 42.2990396 ], [ -85.5851174, 42.2990555 ] ] ] } },
{ "type": "Feature", "properties": { "element": "way", "id": 1070630974, "addr:city": null, "addr:housenumber": null, "addr:postcode": null, "addr:state": null, "addr:street": null, "gnis:feature_id": "629597", "leisure": "park", "name": "Kensington (Lake) Park", "note": null, "opening_hours": null, "website": null, "wikidata": "Q49510204", "ele": "261", "access": null, "operator": null, "description": null, "operator:type": null, "name:etymology:wikidata": null, "source": null, "type": null, "operator:wikidata": null }, "geometry": { "type": "Polygon", "coordinates": [ [ [ -85.6199201, 42.2607502 ], [ -85.6189627, 42.2604979 ], [ -85.6190164, 42.2613413 ], [ -85.6195138, 42.2611615 ], [ -85.6195535, 42.2610423 ], [ -85.6196749, 42.2608747 ], [ -85.6199201, 42.2607502 ] ] ] } },
{ "type": "Feature", "properties": { "element": "way", "id": 1177644048, "addr:city": null, "addr:housenumber": null, "addr:postcode": null, "addr:state": null, "addr:street": null, "gnis:feature_id": null, "leisure": "park", "name": "Florence Street Splash Pad", "note": null, "opening_hours": null, "website": "https://www.kzooparks.org/Parks-Facilities/Florence-Street-Splash-Pad", "wikidata": null, "ele": null, "access": "yes", "operator": "City of Kalamazoo", "description": null, "operator:type": "public", "name:etymology:wikidata": null, "source": null, "type": null, "operator:wikidata": null }, "geometry": { "type": "Polygon", "coordinates": [ [ [ -85.5912549, 42.3002988 ], [ -85.5914813, 42.3002934 ], [ -85.5914655, 42.2999312 ], [ -85.591239, 42.2999367 ], [ -85.5912549, 42.3002988 ] ] ] } },
{ "type": "Feature", "properties": { "element": "way", "id": 1177645418, "addr:city": null, "addr:housenumber": null, "addr:postcode": null, "addr:state": null, "addr:street": null, "gnis:feature_id": null, "leisure": "park", "name": "Fairmount Dog Park", "note": null, "opening_hours": null, "website": "https://www.kzooparks.org/Parks-Facilities/Fairmount-Dog-Park", "wikidata": "Q79872751", "ele": null, "access": "yes", "operator": "City of Kalamazoo", "description": null, "operator:type": "public", "name:etymology:wikidata": null, "source": null, "type": null, "operator:wikidata": null }, "geometry": { "type": "Polygon", "coordinates": [ [ [ -85.6067761, 42.3022494 ], [ -85.6073368, 42.3024977 ], [ -85.6073214, 42.3026823 ], [ -85.6076727, 42.3028259 ], [ -85.6081133, 42.3030036 ], [ -85.6081872, 42.3028851 ], [ -85.6082396, 42.3026914 ], [ -85.6082581, 42.3025251 ], [ -85.6082057, 42.3009026 ], [ -85.6075217, 42.300898 ], [ -85.6075094, 42.3005653 ], [ -85.6073492, 42.3005653 ], [ -85.6073184, 42.2997449 ], [ -85.606391, 42.2997518 ], [ -85.606431, 42.3009413 ], [ -85.6062646, 42.3009436 ], [ -85.6062985, 42.3020534 ], [ -85.6067761, 42.3022494 ] ] ] } },
{ "type": "Feature", "properties": { "element": "way", "id": 1377341168, "addr:city": "Kalamazoo", "addr:housenumber": "1628", "addr:postcode": null, "addr:state": "MI", "addr:street": "East Main Street", "gnis:feature_id": null, "leisure": "park", "name": "Eastside Sunrise Plaza", "note": null, "opening_hours": null, "website": null, "wikidata": null, "ele": null, "access": null, "operator": null, "description": null, "operator:type": null, "name:etymology:wikidata": null, "source": null, "type": null, "operator:wikidata": null }, "geometry": { "type": "Polygon", "coordinates": [ [ [ -85.5587423, 42.2985224 ], [ -85.5587319, 42.2983771 ], [ -85.5589493, 42.2983575 ], [ -85.5589557, 42.2983997 ], [ -85.5587423, 42.2985224 ] ] ] } },
{ "type": "Feature", "properties": { "element": "way", "id": 1379426309, "addr:city": "Kalamazoo", "addr:housenumber": "1527", "addr:postcode": null, "addr:state": "MI", "addr:street": "East Michigan Avenue", "gnis:feature_id": null, "leisure": "park", "name": null, "note": null, "opening_hours": null, "website": null, "wikidata": null, "ele": null, "access": null, "operator": null, "description": null, "operator:type": null, "name:etymology:wikidata": null, "source": null, "type": null, "operator:wikidata": null }, "geometry": { "type": "Polygon", "coordinates": [ [ [ -85.5598295, 42.2933915 ], [ -85.5598455, 42.2934173 ], [ -85.5603109, 42.2934163 ], [ -85.5603418, 42.2932923 ], [ -85.5598871, 42.2931078 ], [ -85.5598227, 42.2931415 ], [ -85.5598295, 42.2933915 ] ] ] } },
{ "type": "Feature", "properties": { "element": "way", "id": 1389009780, "addr:city": "Kalamazoo", "addr:housenumber": "2731", "addr:postcode": "49008", "addr:state": "MI", "addr:street": "Wellington Road", "gnis:feature_id": null, "leisure": "park", "name": "Glen Park North", "note": null, "opening_hours": null, "website": null, "wikidata": null, "ele": null, "access": null, "operator": null, "description": null, "operator:type": null, "name:etymology:wikidata": null, "source": null, "type": null, "operator:wikidata": null }, "geometry": { "type": "Polygon", "coordinates": [ [ [ -85.6244892, 42.2620636 ], [ -85.6240818, 42.2620636 ], [ -85.6238697, 42.2610295 ], [ -85.6240868, 42.2610058 ], [ -85.6243764, 42.2617135 ], [ -85.6244926, 42.261711 ], [ -85.6244892, 42.2620636 ] ] ] } },
{ "type": "Feature", "properties": { "element": "way", "id": 1389011084, "addr:city": "Kalamazoo", "addr:housenumber": "2700", "addr:postcode": "49008", "addr:state": "MI", "addr:street": "Parkview Avenue", "gnis:feature_id": null, "leisure": "park", "name": "Glen Park South", "note": null, "opening_hours": null, "website": null, "wikidata": null, "ele": null, "access": null, "operator": null, "description": null, "operator:type": null, "name:etymology:wikidata": null, "source": null, "type": null, "operator:wikidata": null }, "geometry": { "type": "Polygon", "coordinates": [ [ [ -85.6241961, 42.2607987 ], [ -85.6232366, 42.2609021 ], [ -85.6231793, 42.2598992 ], [ -85.6242954, 42.2598979 ], [ -85.6241389, 42.2604025 ], [ -85.6241961, 42.2607987 ] ] ] } },
{ "type": "Feature", "properties": { "element": "way", "id": 1389018551, "addr:city": "Kalamazoo", "addr:housenumber": "2915", "addr:postcode": "49008", "addr:state": "MI", "addr:street": "Wellington Road", "gnis:feature_id": null, "leisure": "park", "name": "Canyon Park", "note": null, "opening_hours": null, "website": null, "wikidata": null, "ele": null, "access": null, "operator": null, "description": null, "operator:type": null, "name:etymology:wikidata": null, "source": null, "type": null, "operator:wikidata": null }, "geometry": { "type": "Polygon", "coordinates": [ [ [ -85.6259836, 42.2620862 ], [ -85.6263346, 42.2620825 ], [ -85.6265447, 42.2620709 ], [ -85.6267537, 42.2620248 ], [ -85.6269817, 42.2619406 ], [ -85.6265702, 42.2618222 ], [ -85.6266337, 42.2609691 ], [ -85.6263158, 42.260884 ], [ -85.6262249, 42.2617266 ], [ -85.6259845, 42.2617172 ], [ -85.6259836, 42.2620862 ] ] ] } },
{ "type": "Feature", "properties": { "element": "way", "id": 1389020960, "addr:city": null, "addr:housenumber": "2920", "addr:postcode": null, "addr:state": null, "addr:street": "Brooklyn Boulevard", "gnis:feature_id": null, "leisure": "park", "name": "Hillside Park", "note": null, "opening_hours": null, "website": null, "wikidata": null, "ele": null, "access": null, "operator": null, "description": null, "operator:type": null, "name:etymology:wikidata": null, "source": null, "type": null, "operator:wikidata": null }, "geometry": { "type": "Polygon", "coordinates": [ [ [ -85.6280003, 42.2619149 ], [ -85.6281768, 42.2617971 ], [ -85.6283104, 42.2616994 ], [ -85.6283778, 42.2618872 ], [ -85.6287426, 42.2618541 ], [ -85.6287047, 42.2611322 ], [ -85.6280666, 42.2611351 ], [ -85.6278238, 42.2614838 ], [ -85.6280003, 42.2619149 ] ] ] } },
{ "type": "Feature", "properties": { "element": "way", "id": 1389073362, "addr:city": null, "addr:housenumber": null, "addr:postcode": null, "addr:state": null, "addr:street": null, "gnis:feature_id": null, "leisure": "park", "name": "Little Sister Preserve", "note": null, "opening_hours": null, "website": null, "wikidata": null, "ele": null, "access": null, "operator": "Stewards of Kleinstuck", "description": null, "operator:type": "association", "name:etymology:wikidata": null, "source": null, "type": null, "operator:wikidata": null }, "geometry": { "type": "Polygon", "coordinates": [ [ [ -85.599299, 42.2699259 ], [ -85.5983553, 42.2699182 ], [ -85.5983538, 42.2699632 ], [ -85.5977332, 42.269955 ], [ -85.5977435, 42.269587 ], [ -85.5972496, 42.269579 ], [ -85.59726, 42.2690077 ], [ -85.5972451, 42.269008 ], [ -85.5970778, 42.2689557 ], [ -85.5969987, 42.2688771 ], [ -85.5968212, 42.2686053 ], [ -85.5973457, 42.2684226 ], [ -85.5972591, 42.2681653 ], [ -85.5966886, 42.2680998 ], [ -85.596706, 42.26807 ], [ -85.5965615, 42.2681215 ], [ -85.5965812, 42.2680186 ], [ -85.5966269, 42.2679458 ], [ -85.5971067, 42.2673993 ], [ -85.5976705, 42.2676539 ], [ -85.5981832, 42.2678377 ], [ -85.5988771, 42.2678618 ], [ -85.5988678, 42.2672425 ], [ -85.5993312, 42.2672546 ], [ -85.599299, 42.2699259 ] ] ] } },
{ "type": "Feature", "properties": { "element": "way", "id": 1389075091, "addr:city": null, "addr:housenumber": null, "addr:postcode": null, "addr:state": null, "addr:street": null, "gnis:feature_id": null, "leisure": "park", "name": "Kleinstuck Preserve", "note": null, "opening_hours": null, "website": null, "wikidata": null, "ele": null, "access": null, "operator": "City of Kalamazoo", "description": null, "operator:type": null, "name:etymology:wikidata": null, "source": null, "type": null, "operator:wikidata": null }, "geometry": { "type": "Polygon", "coordinates": [ [ [ -85.5995244, 42.2705703 ], [ -85.5993985, 42.2705677 ], [ -85.5994034, 42.27013 ], [ -85.5992804, 42.2701282 ], [ -85.599299, 42.2699259 ], [ -85.5993312, 42.2672546 ], [ -85.5993307, 42.2669575 ], [ -85.5995728, 42.2669596 ], [ -85.5995244, 42.2705703 ] ] ] } },
{ "type": "Feature", "properties": { "element": "way", "id": 1460856604, "addr:city": null, "addr:housenumber": null, "addr:postcode": null, "addr:state": null, "addr:street": null, "gnis:feature_id": null, "leisure": "park", "name": null, "note": null, "opening_hours": null, "website": null, "wikidata": null, "ele": null, "access": null, "operator": null, "description": null, "operator:type": null, "name:etymology:wikidata": null, "source": null, "type": null, "operator:wikidata": null }, "geometry": { "type": "Polygon", "coordinates": [ [ [ -85.6007373, 42.2886991 ], [ -85.6007454, 42.2878241 ], [ -85.6006596, 42.2878142 ], [ -85.6006193, 42.2878915 ], [ -85.5994606, 42.2886436 ], [ -85.5995317, 42.2886892 ], [ -85.6007373, 42.2886991 ] ] ] } },
{ "type": "Feature", "properties": { "element": "way", "id": 1482327365, "addr:city": null, "addr:housenumber": null, "addr:postcode": null, "addr:state": null, "addr:street": null, "gnis:feature_id": null, "leisure": "park", "name": null, "note": null, "opening_hours": null, "website": null, "wikidata": null, "ele": null, "access": null, "operator": null, "description": null, "operator:type": null, "name:etymology:wikidata": null, "source": null, "type": null, "operator:wikidata": null }, "geometry": { "type": "Polygon", "coordinates": [ [ [ -85.6008436, 42.2892476 ], [ -85.6014128, 42.2892472 ], [ -85.6014092, 42.2894472 ], [ -85.6013301, 42.289462 ], [ -85.6013207, 42.2895166 ], [ -85.601196, 42.2895484 ], [ -85.6011705, 42.2896009 ], [ -85.6011853, 42.2896515 ], [ -85.6012496, 42.2896902 ], [ -85.601255, 42.2899174 ], [ -85.5997583, 42.2899293 ], [ -85.599761, 42.2893261 ], [ -85.5999595, 42.2893261 ], [ -85.5999595, 42.2892785 ], [ -85.6000021, 42.2892749 ], [ -85.6001225, 42.2892749 ], [ -85.6001224, 42.2892602 ], [ -85.6004733, 42.28926 ], [ -85.6004733, 42.289284 ], [ -85.6005316, 42.2892839 ], [ -85.6005316, 42.289317 ], [ -85.6007257, 42.2893169 ], [ -85.6007256, 42.2892833 ], [ -85.6008436, 42.2892832 ], [ -85.6008436, 42.2892476 ] ] ] } }
]
}
