{
"type": "FeatureCollection",
"name": "waterways",
"crs": { "type": "name", "properties": { "name": "urn:ogc:def:crs:OGC:1.3:CRS84" } },
"features": [
{ "type": "Feature", "properties": { "element": "node", "id": 12290559494, "access": "yes", "canoe": "put_in;egress", "description": "Gravel beach leading to trail and parking.", "fee": "no", "informal": "no", "surface": "gravel", "tidal": "no", "waterway": "access_point", "wheelchair": "no", "name": null, "wikidata": null, "intermittent": null, "tunnel": null, "layer": null }, "geometry": { "type": "Point", "coordinates": [ -85.5623092, 42.2914537 ] } },
{ "type": "Feature", "properties": { "element": "way", "id": 122221529, "access": null, "canoe": null, "description": null, "fee": null, "informal": null, "surface": null, "tidal": null, "waterway": "river", "wheelchair": null, "name": "Kalamazoo River", "wikidata": null, "intermittent": null, "tunnel": null, "layer": null }, "geometry": { "type": "LineString", "coordinates": [ [ -85.4926767, 42.2827295 ], [ -85.493961, 42.2828532 ], [ -85.4951895, 42.2828055 ], [ -85.4962009, 42.2825758 ], [ -85.4968232, 42.2825956 ], [ -85.4973406, 42.2830199 ], [ -85.4978853, 42.2837624 ], [ -85.4985291, 42.2843339 ], [ -85.4994786, 42.2844292 ], [ -85.5003583, 42.2841752 ], [ -85.5009777, 42.2838136 ], [ -85.5020803, 42.2836592 ], [ -85.5037082, 42.2838811 ], [ -85.505771, 42.2844927 ], [ -85.5073053, 42.2848736 ], [ -85.5083006, 42.2848553 ], [ -85.5089548, 42.2847147 ], [ -85.5094085, 42.2846718 ], [ -85.5100364, 42.2846746 ], [ -85.5101699, 42.2846752 ], [ -85.5111301, 42.2847149 ], [ -85.5119187, 42.2849848 ], [ -85.5123824, 42.2853693 ], [ -85.5128199, 42.2857269 ], [ -85.5133641, 42.2859726 ], [ -85.5138606, 42.2859333 ], [ -85.5146384, 42.2857705 ], [ -85.5154431, 42.2858261 ], [ -85.5158651, 42.2858261 ], [ -85.5169183, 42.2858261 ], [ -85.5177069, 42.2858698 ], [ -85.5190426, 42.2860801 ], [ -85.5202603, 42.2861118 ], [ -85.5212981, 42.2860202 ], [ -85.5232517, 42.2858425 ], [ -85.5242646, 42.2857503 ], [ -85.5256033, 42.2857031 ], [ -85.5263514, 42.2856987 ], [ -85.5273384, 42.285413 ], [ -85.5283231, 42.2852427 ], [ -85.5290526, 42.2852705 ], [ -85.5301899, 42.2856039 ], [ -85.531708, 42.2860483 ], [ -85.5325019, 42.2862666 ], [ -85.5336499, 42.2863341 ], [ -85.5345887, 42.2861595 ], [ -85.5352187, 42.2857344 ], [ -85.5358118, 42.2855007 ], [ -85.5366272, 42.2854888 ], [ -85.5376089, 42.2856436 ], [ -85.5382472, 42.2856436 ], [ -85.5387754, 42.2854011 ], [ -85.5392182, 42.2847744 ], [ -85.5398053, 42.2843137 ], [ -85.5415809, 42.283635 ], [ -85.543893, 42.2834802 ], [ -85.5460334, 42.2833016 ], [ -85.5470824, 42.2833735 ], [ -85.5478549, 42.2836473 ], [ -85.5495769, 42.2838775 ], [ -85.5522162, 42.2841156 ], [ -85.5526561, 42.2843776 ], [ -85.5527687, 42.2851832 ], [ -85.5527097, 42.2855443 ], [ -85.5528975, 42.2864055 ], [ -85.5531979, 42.2869056 ], [ -85.5538708, 42.2870639 ], [ -85.5547106, 42.2871119 ], [ -85.5558854, 42.2872905 ], [ -85.5571997, 42.2878937 ], [ -85.5581546, 42.2880802 ], [ -85.55897, 42.2883739 ], [ -85.5592275, 42.288616 ], [ -85.5592436, 42.2888779 ], [ -85.5591309, 42.2890644 ], [ -85.5586857, 42.2894017 ], [ -85.5584443, 42.2896874 ], [ -85.5582726, 42.2902152 ], [ -85.5584013, 42.2906517 ], [ -85.559147, 42.290997 ], [ -85.5603272, 42.2913819 ], [ -85.5617702, 42.2916914 ], [ -85.5629557, 42.2920128 ], [ -85.5638945, 42.2925604 ], [ -85.5654419, 42.292941 ], [ -85.5661315, 42.2930682 ], [ -85.5668798, 42.2932746 ], [ -85.5675638, 42.29334 ], [ -85.5684086, 42.2933619 ], [ -85.5689477, 42.2935285 ], [ -85.5693259, 42.2937309 ], [ -85.5698114, 42.2938995 ], [ -85.5701761, 42.294213 ], [ -85.5710103, 42.2945562 ], [ -85.5714609, 42.2945958 ], [ -85.5716996, 42.2946633 ], [ -85.5721449, 42.2949549 ], [ -85.5726786, 42.2953101 ], [ -85.5727474, 42.2954714 ], [ -85.5727725, 42.2955303 ], [ -85.5727725, 42.2957644 ], [ -85.5727435, 42.2961146 ], [ -85.5725338, 42.2964251 ], [ -85.5720322, 42.2969072 ], [ -85.571587, 42.2973159 ], [ -85.5714722, 42.2976343 ], [ -85.5714368, 42.2980678 ], [ -85.5715977, 42.2983832 ], [ -85.5719223, 42.2987423 ], [ -85.5723675, 42.2990716 ], [ -85.5727242, 42.2995041 ], [ -85.5729442, 42.2999148 ], [ -85.5729549, 42.300256 ], [ -85.5727269, 42.3006448 ], [ -85.5723997, 42.3009245 ], [ -85.5718847, 42.3012836 ], [ -85.5714019, 42.3016486 ], [ -85.571139, 42.3019859 ], [ -85.5710291, 42.3024064 ], [ -85.5709781, 42.3030749 ], [ -85.5710344, 42.3038526 ], [ -85.5710103, 42.3046064 ], [ -85.5710988, 42.3056974 ], [ -85.5711739, 42.3060029 ], [ -85.5713295, 42.3062469 ], [ -85.5715226, 42.3067408 ], [ -85.5716513, 42.3073359 ], [ -85.5717506, 42.3081829 ], [ -85.5719276, 42.3087165 ], [ -85.5723729, 42.3094286 ], [ -85.5724887, 42.3100524 ], [ -85.5724265, 42.3103886 ], [ -85.5722388, 42.3105909 ], [ -85.5720644, 42.311067 ], [ -85.5719464, 42.3119417 ], [ -85.5718391, 42.3130524 ], [ -85.5716755, 42.3135661 ], [ -85.5716084, 42.3139687 ], [ -85.5716304, 42.3143664 ], [ -85.5718016, 42.3148692 ], [ -85.5721797, 42.3153591 ], [ -85.5727323, 42.3158946 ], [ -85.5729925, 42.3163904 ], [ -85.5730279, 42.3169309 ], [ -85.572971, 42.3175388 ], [ -85.573042, 42.318118 ], [ -85.573027, 42.318345 ], [ -85.5731, 42.318839 ], [ -85.57314, 42.319165 ], [ -85.573219, 42.319454 ], [ -85.573308, 42.319748 ], [ -85.573558, 42.32019 ], [ -85.573686, 42.32034 ], [ -85.5740054, 42.3205793 ], [ -85.5742628, 42.3207874 ], [ -85.575694, 42.321944 ], [ -85.5755804, 42.3220134 ], [ -85.575523, 42.322091 ], [ -85.575451, 42.322164 ], [ -85.57541, 42.322212 ], [ -85.575327, 42.322263 ], [ -85.575136, 42.32234 ], [ -85.574897, 42.322409 ], [ -85.574517, 42.322438 ], [ -85.5741866, 42.3224685 ], [ -85.573558, 42.322494 ], [ -85.573275, 42.3225107 ], [ -85.573051, 42.3225486 ], [ -85.5727927, 42.3226704 ], [ -85.5725757, 42.3229185 ], [ -85.5726696, 42.3234115 ], [ -85.5728877, 42.3237686 ], [ -85.5731141, 42.3239114 ], [ -85.5733407, 42.3239872 ], [ -85.5736763, 42.3240455 ], [ -85.573942, 42.324086 ], [ -85.574172, 42.324123 ], [ -85.574464, 42.324136 ], [ -85.574747, 42.324144 ], [ -85.575008, 42.324109 ], [ -85.575423, 42.324066 ], [ -85.57577, 42.324045 ], [ -85.576009, 42.3239887 ], [ -85.5763083, 42.3239802 ], [ -85.5766323, 42.3239723 ], [ -85.5769309, 42.323986 ], [ -85.57726, 42.3239997 ], [ -85.5775802, 42.3240038 ], [ -85.5779123, 42.3240135 ], [ -85.578414, 42.324077 ], [ -85.578582, 42.324122 ], [ -85.578713, 42.32427 ], [ -85.5792536, 42.3250816 ], [ -85.5795801, 42.325648 ], [ -85.579712, 42.3258927 ], [ -85.5798459, 42.3264709 ], [ -85.5798086, 42.3267719 ], [ -85.5796825, 42.3270397 ], [ -85.5794996, 42.3272824 ], [ -85.5793537, 42.3274253 ], [ -85.5791568, 42.3275277 ], [ -85.5789396, 42.3276308 ], [ -85.5786611, 42.3276942 ], [ -85.5783395, 42.3277264 ], [ -85.5781022, 42.327763 ], [ -85.577956, 42.3278013 ], [ -85.5778833, 42.3278751 ], [ -85.5778428, 42.3279544 ], [ -85.5777916, 42.3280593 ], [ -85.577804, 42.328153 ], [ -85.5777725, 42.3283552 ], [ -85.577827, 42.3285548 ], [ -85.5779544, 42.3287279 ], [ -85.5782183, 42.3289931 ], [ -85.5785748, 42.3294666 ], [ -85.580259, 42.331507 ], [ -85.580715, 42.332051 ], [ -85.5813106, 42.3327843 ], [ -85.5818491, 42.3332405 ], [ -85.5824888, 42.3335908 ], [ -85.5825733, 42.3336371 ], [ -85.5834531, 42.3343826 ], [ -85.5837808, 42.3349883 ], [ -85.5837427, 42.3359688 ], [ -85.5834155, 42.3369681 ], [ -85.5826919, 42.3379981 ], [ -85.582032, 42.3385215 ], [ -85.5816726, 42.3388427 ], [ -85.5809908, 42.3391014 ], [ -85.5803739, 42.3394147 ], [ -85.5799721, 42.3397467 ], [ -85.5791406, 42.3402305 ], [ -85.578116, 42.3407935 ], [ -85.5776327, 42.3412188 ], [ -85.5771826, 42.3418364 ], [ -85.5770431, 42.3425778 ], [ -85.5770855, 42.3433322 ], [ -85.577247, 42.344362 ], [ -85.577188, 42.3450162 ], [ -85.5770211, 42.3458617 ], [ -85.5772202, 42.3468678 ], [ -85.5773757, 42.3486955 ], [ -85.5777083, 42.3496867 ], [ -85.577579, 42.3504052 ], [ -85.5773757, 42.3514429 ], [ -85.5772041, 42.352323 ], [ -85.5772631, 42.353215 ], [ -85.5772142, 42.354881 ], [ -85.5771767, 42.3567006 ], [ -85.5772894, 42.3578541 ], [ -85.5772947, 42.3586945 ], [ -85.5773054, 42.3596736 ], [ -85.5770855, 42.3601691 ], [ -85.5766032, 42.3606992 ], [ -85.5763077, 42.3611878 ], [ -85.5762653, 42.3617497 ], [ -85.5761151, 42.3630973 ], [ -85.5757659, 42.3653299 ], [ -85.5752943, 42.366835 ], [ -85.5750792, 42.368025 ], [ -85.5752831, 42.368897 ], [ -85.5759, 42.3698204 ], [ -85.5758892, 42.3709737 ], [ -85.5756961, 42.3720715 ], [ -85.575922, 42.3727562 ], [ -85.5763404, 42.3733744 ], [ -85.5767803, 42.3741036 ], [ -85.576874, 42.3742562 ], [ -85.5775254, 42.3753173 ], [ -85.5783434, 42.3762799 ], [ -85.5784481, 42.3764031 ], [ -85.5789791, 42.3769341 ], [ -85.5787163, 42.3776316 ], [ -85.5787056, 42.3781705 ], [ -85.5791562, 42.3787412 ], [ -85.5792509, 42.3791676 ], [ -85.5794405, 42.3794703 ], [ -85.5797966, 42.3797517 ], [ -85.5802644, 42.380015 ], [ -85.580626, 42.380354 ], [ -85.58134, 42.3808721 ], [ -85.5818545, 42.381404 ], [ -85.5824612, 42.3824769 ], [ -85.5830776, 42.3830366 ], [ -85.5834745, 42.38331 ], [ -85.5836516, 42.3836706 ], [ -85.5834268, 42.3845928 ], [ -85.5832605, 42.3853615 ], [ -85.5829708, 42.385841 ], [ -85.5829542, 42.3861589 ], [ -85.5833136, 42.3866146 ], [ -85.583872, 42.3867879 ], [ -85.5842792, 42.3872248 ], [ -85.5849497, 42.3878191 ], [ -85.5853038, 42.3882312 ], [ -85.5853365, 42.3885511 ], [ -85.585116, 42.388873 ], [ -85.5847679, 42.3890345 ], [ -85.5842577, 42.3890077 ], [ -85.5838881, 42.3888086 ], [ -85.5834853, 42.3888057 ], [ -85.5827289, 42.3889166 ], [ -85.5818491, 42.3891702 ], [ -85.5809854, 42.3897645 ], [ -85.5805139, 42.3904608 ], [ -85.5803637, 42.3912334 ], [ -85.5805032, 42.3918158 ], [ -85.5814629, 42.3931123 ], [ -85.581833, 42.3938175 ], [ -85.5819891, 42.3946683 ], [ -85.5820744, 42.39625 ], [ -85.5822729, 42.3969631 ], [ -85.5826699, 42.3975019 ], [ -85.5828689, 42.398511 ], [ -85.5830615, 42.39913 ], [ -85.5836462, 42.4000491 ], [ -85.5837969, 42.4009513 ], [ -85.583909, 42.4014157 ], [ -85.5842314, 42.4018544 ], [ -85.5847089, 42.402108 ], [ -85.5859797, 42.4027863 ], [ -85.5867844, 42.4032023 ], [ -85.5880992, 42.4036489 ], [ -85.588523, 42.4038707 ], [ -85.5888234, 42.4043856 ], [ -85.5892359, 42.4055631 ], [ -85.589456, 42.4065051 ], [ -85.5894719, 42.4065731 ], [ -85.5898099, 42.4070326 ], [ -85.5903791, 42.4077327 ], [ -85.5910174, 42.4087467 ], [ -85.5912047, 42.4091992 ], [ -85.5910872, 42.4095111 ], [ -85.5906253, 42.4099478 ], [ -85.5901484, 42.4104656 ], [ -85.5892311, 42.4106993 ], [ -85.5881793, 42.4109463 ], [ -85.587713, 42.4110558 ], [ -85.5871009, 42.4114291 ], [ -85.586742, 42.411939 ], [ -85.5866615, 42.412446 ], [ -85.586956, 42.4128945 ], [ -85.5875037, 42.4132817 ], [ -85.5881952, 42.413445 ], [ -85.5889194, 42.4133143 ], [ -85.5904917, 42.4129331 ], [ -85.5910544, 42.4129975 ], [ -85.5918114, 42.4133371 ], [ -85.592358, 42.4138728 ], [ -85.5927979, 42.4142134 ], [ -85.5935865, 42.4142688 ], [ -85.5946647, 42.4142411 ], [ -85.595012, 42.4143019 ], [ -85.5962043, 42.4145104 ], [ -85.5969821, 42.4148074 ], [ -85.5982159, 42.4158332 ], [ -85.5990743, 42.4164708 ], [ -85.5997448, 42.4167401 ], [ -85.6007109, 42.4169134 ], [ -85.6013059, 42.41735 ], [ -85.6016551, 42.4180579 ], [ -85.6017296, 42.4183797 ], [ -85.6022446, 42.4183915 ], [ -85.6026475, 42.4181688 ], [ -85.6038593, 42.4172233 ], [ -85.6042402, 42.4170213 ], [ -85.6051039, 42.4168708 ], [ -85.6057905, 42.4169817 ], [ -85.6071906, 42.4180549 ], [ -85.6073905, 42.418322 ], [ -85.6075073, 42.41862 ], [ -85.6076242, 42.4191299 ], [ -85.6077836, 42.4194672 ], [ -85.608028, 42.4197025 ], [ -85.6084264, 42.4200319 ], [ -85.6086921, 42.4203614 ], [ -85.608859, 42.4208072 ], [ -85.6086825, 42.4210795 ], [ -85.6082319, 42.4213765 ], [ -85.6075077, 42.4214517 ], [ -85.6065737, 42.4211082 ], [ -85.6061236, 42.4211428 ], [ -85.6056891, 42.4213567 ], [ -85.6054263, 42.4215507 ], [ -85.6053828, 42.4219438 ], [ -85.6056677, 42.4223229 ], [ -85.6063269, 42.4224546 ], [ -85.60755, 42.4224942 ], [ -85.6087415, 42.4226476 ], [ -85.6096582, 42.4229219 ], [ -85.6108116, 42.4232505 ], [ -85.6125228, 42.4238445 ], [ -85.6135689, 42.4243989 ], [ -85.6143199, 42.4251909 ], [ -85.6150763, 42.4261214 ], [ -85.6155744, 42.4264184 ], [ -85.6162672, 42.4266283 ], [ -85.6169281, 42.4267326 ], [ -85.6174624, 42.4267518 ], [ -85.6179567, 42.4266998 ], [ -85.6184344, 42.4265689 ], [ -85.6187252, 42.4264428 ], [ -85.6190674, 42.4261729 ], [ -85.6194376, 42.4256938 ], [ -85.6201999, 42.4251028 ], [ -85.6210576, 42.424296 ], [ -85.6213594, 42.4241253 ], [ -85.6217496, 42.4240029 ], [ -85.6223802, 42.4240281 ], [ -85.6230521, 42.4241825 ], [ -85.6237833, 42.4244652 ], [ -85.6242033, 42.4247752 ], [ -85.6243997, 42.424878 ], [ -85.6252633, 42.4251988 ], [ -85.6263148, 42.4257136 ], [ -85.6271033, 42.4259947 ], [ -85.6275379, 42.4260501 ], [ -85.6277197, 42.4261733 ], [ -85.6278007, 42.4263432 ], [ -85.6277637, 42.4267104 ], [ -85.6276993, 42.4273163 ], [ -85.6277898, 42.4274633 ], [ -85.6278704, 42.4275944 ], [ -85.6285944, 42.4277673 ], [ -85.6293457, 42.42803 ], [ -85.6297662, 42.4282016 ], [ -85.6300565, 42.4282583 ], [ -85.6303703, 42.4282596 ], [ -85.6311495, 42.4281755 ], [ -85.6316363, 42.4282398 ], [ -85.6318332, 42.4283311 ], [ -85.6319206, 42.4284933 ], [ -85.6319099, 42.4288575 ], [ -85.6317001, 42.4291387 ], [ -85.6316335, 42.4293828 ], [ -85.6316154, 42.4295861 ], [ -85.6316911, 42.4298341 ], [ -85.6318487, 42.4300543 ] ] } },
{ "type": "Feature", "properties": { "element": "way", "id": 143659528, "access": null, "canoe": null, "description": null, "fee": null, "informal": null, "surface": null, "tidal": null, "waterway": "river", "wheelchair": null, "name": "Portage Creek", "wikidata": "Q35265840", "intermittent": null, "tunnel": null, "layer": null }, "geometry": { "type": "LineString", "coordinates": [ [ -85.5739251, 42.2645524 ], [ -85.5743872, 42.264679 ], [ -85.5745061, 42.2647024 ], [ -85.5746769, 42.2647026 ], [ -85.5749712, 42.2647068 ], [ -85.5751244, 42.26472 ], [ -85.5753124, 42.2647482 ], [ -85.5768388, 42.2650927 ], [ -85.5770703, 42.265154 ], [ -85.5772527, 42.2652492 ], [ -85.5773579, 42.2653335 ], [ -85.57744, 42.2654466 ], [ -85.5775236, 42.265577 ], [ -85.577569, 42.2656736 ], [ -85.5775879, 42.2657564 ], [ -85.5775693, 42.2659027 ], [ -85.5775321, 42.2660525 ], [ -85.5774685, 42.266217 ], [ -85.5774377, 42.2663714 ], [ -85.5774324, 42.2665293 ], [ -85.5774553, 42.2668178 ], [ -85.5774585, 42.2669508 ], [ -85.5774365, 42.2670724 ], [ -85.5773763, 42.2672307 ], [ -85.5771413, 42.2677362 ], [ -85.5770743, 42.2678949 ], [ -85.5770545, 42.2679971 ], [ -85.5770615, 42.268135 ], [ -85.5770755, 42.2682362 ], [ -85.5771149, 42.2683246 ], [ -85.5775083, 42.2689687 ], [ -85.5775532, 42.2690807 ], [ -85.5775878, 42.2692015 ], [ -85.5776232, 42.2693662 ], [ -85.5776796, 42.2694672 ], [ -85.5777516, 42.2695504 ], [ -85.5778575, 42.2696418 ], [ -85.5779742, 42.2697435 ], [ -85.5780334, 42.2698138 ], [ -85.57807, 42.269893 ], [ -85.5780782, 42.270003 ], [ -85.5780877, 42.2702378 ], [ -85.5780932, 42.2703732 ], [ -85.5780884, 42.2704974 ], [ -85.5780682, 42.2706808 ], [ -85.5780277, 42.2709336 ], [ -85.5780038, 42.2710627 ], [ -85.5779873, 42.2711098 ], [ -85.5779664, 42.2711468 ], [ -85.5779345, 42.2711811 ], [ -85.5778434, 42.2712475 ], [ -85.5776064, 42.2713824 ], [ -85.5773948, 42.2714894 ], [ -85.5772932, 42.2715507 ], [ -85.5772257, 42.2715983 ], [ -85.5771982, 42.2716284 ], [ -85.5771644, 42.2716816 ], [ -85.5771198, 42.2718001 ], [ -85.5770647, 42.2719665 ], [ -85.5768858, 42.2725467 ], [ -85.5767587, 42.2729452 ], [ -85.5767216, 42.2730882 ], [ -85.5767011, 42.2731866 ], [ -85.5766458, 42.2736178 ], [ -85.5766052, 42.2739097 ], [ -85.5765972, 42.2740504 ], [ -85.5765815, 42.2742343 ], [ -85.5763891, 42.2761713 ], [ -85.5764305, 42.2762437 ], [ -85.576502, 42.2763049 ], [ -85.5765885, 42.2763606 ], [ -85.5766675, 42.2764246 ], [ -85.576955, 42.2766441 ], [ -85.5772682, 42.2769439 ], [ -85.57688, 42.2776781 ], [ -85.5768223, 42.2778498 ], [ -85.576756, 42.2781433 ], [ -85.5766575, 42.2784471 ], [ -85.5766686, 42.2785537 ], [ -85.5767212, 42.2787299 ], [ -85.576771, 42.2788896 ], [ -85.5768016, 42.2790089 ], [ -85.5768532, 42.2791546 ], [ -85.5768865, 42.2792608 ], [ -85.5769174, 42.2793665 ], [ -85.5769767, 42.2795257 ], [ -85.5771357, 42.2796874 ], [ -85.5773369, 42.2798451 ], [ -85.5776157, 42.2800689 ], [ -85.5776983, 42.2802078 ], [ -85.5780593, 42.2808428 ], [ -85.5784585, 42.2815936 ], [ -85.578605, 42.2820796 ], [ -85.5787404, 42.2825678 ], [ -85.5789663, 42.2829027 ], [ -85.5789808, 42.2834974 ], [ -85.5789736, 42.2841444 ], [ -85.5787209, 42.284413 ], [ -85.5784902, 42.2846429 ], [ -85.5780405, 42.2851753 ], [ -85.577977, 42.285214 ], [ -85.5778923, 42.2852292 ], [ -85.5777727, 42.2852279 ], [ -85.5776921, 42.2852397 ], [ -85.5776229, 42.2852738 ], [ -85.5775412, 42.2853393 ], [ -85.5774342, 42.2854521 ], [ -85.5772495, 42.2855662 ], [ -85.5771642, 42.2856441 ], [ -85.5771355, 42.2857431 ], [ -85.5771573, 42.285872 ], [ -85.5771018, 42.2860095 ], [ -85.5768171, 42.2863832 ], [ -85.5763572, 42.2866315 ], [ -85.5759188, 42.2869735 ], [ -85.575872, 42.2871296 ], [ -85.5758503, 42.2875164 ], [ -85.5756754, 42.2880627 ], [ -85.5755599, 42.2883441 ], [ -85.5755201, 42.2885186 ], [ -85.5755165, 42.2887661 ], [ -85.5755645, 42.2892236 ], [ -85.5755585, 42.2895257 ], [ -85.5755465, 42.2897167 ], [ -85.5757261, 42.2900126 ], [ -85.575777, 42.2905886 ], [ -85.5758546, 42.2909357 ], [ -85.5757697, 42.2912238 ], [ -85.5750784, 42.2915361 ], [ -85.5733973, 42.292026 ], [ -85.5733536, 42.2923059 ], [ -85.5736666, 42.2925966 ], [ -85.5736739, 42.2938993 ], [ -85.5735429, 42.2945184 ], [ -85.5734718, 42.2951653 ], [ -85.5727474, 42.2954714 ] ] } },
{ "type": "Feature", "properties": { "element": "way", "id": 267682005, "access": null, "canoe": null, "description": null, "fee": null, "informal": null, "surface": null, "tidal": null, "waterway": "stream", "wheelchair": null, "name": "Arcadia Creek", "wikidata": null, "intermittent": null, "tunnel": "culvert", "layer": null }, "geometry": { "type": "LineString", "coordinates": [ [ -85.5887341, 42.292958 ], [ -85.5883716, 42.2930233 ] ] } },
{ "type": "Feature", "properties": { "element": "way", "id": 267682006, "access": null, "canoe": null, "description": null, "fee": null, "informal": null, "surface": null, "tidal": null, "waterway": "stream", "wheelchair": null, "name": "Arcadia Creek", "wikidata": null, "intermittent": null, "tunnel": null, "layer": null }, "geometry": { "type": "LineString", "coordinates": [ [ -85.5896361, 42.2929514 ], [ -85.5887341, 42.292958 ] ] } },
{ "type": "Feature", "properties": { "element": "way", "id": 267682008, "access": null, "canoe": null, "description": null, "fee": null, "informal": null, "surface": null, "tidal": null, "waterway": "stream", "wheelchair": null, "name": "Arcadia Creek", "wikidata": null, "intermittent": null, "tunnel": null, "layer": null }, "geometry": { "type": "LineString", "coordinates": [ [ -85.5883716, 42.2930233 ], [ -85.5875473, 42.2930445 ] ] } },
{ "type": "Feature", "properties": { "element": "way", "id": 267682009, "access": null, "canoe": null, "description": null, "fee": null, "informal": null, "surface": null, "tidal": null, "waterway": "stream", "wheelchair": null, "name": "Arcadia Creek", "wikidata": null, "intermittent": null, "tunnel": "culvert", "layer": null }, "geometry": { "type": "LineString", "coordinates": [ [ -85.5834623, 42.2930959 ], [ -85.5830974, 42.2930978 ] ] } },
{ "type": "Feature", "properties": { "element": "way", "id": 267682011, "access": null, "canoe": null, "description": null, "fee": null, "informal": null, "surface": null, "tidal": null, "waterway": "stream", "wheelchair": null, "name": "Arcadia Creek", "wikidata": null, "intermittent": null, "tunnel": null, "layer": null }, "geometry": { "type": "LineString", "coordinates": [ [ -85.5830974, 42.2930978 ], [ -85.5828407, 42.293108 ] ] } },
{ "type": "Feature", "properties": { "element": "way", "id": 267682013, "access": null, "canoe": null, "description": null, "fee": null, "informal": null, "surface": null, "tidal": null, "waterway": "stream", "wheelchair": null, "name": "Arcadia Creek", "wikidata": null, "intermittent": null, "tunnel": "culvert", "layer": null }, "geometry": { "type": "LineString", "coordinates": [ [ -85.5828407, 42.293108 ], [ -85.582438, 42.2931203 ] ] } },
{ "type": "Feature", "properties": { "element": "way", "id": 267682014, "access": null, "canoe": null, "description": null, "fee": null, "informal": null, "surface": null, "tidal": null, "waterway": "stream", "wheelchair": null, "name": "Arcadia Creek", "wikidata": null, "intermittent": null, "tunnel": "culvert", "layer": null }, "geometry": { "type": "LineString", "coordinates": [ [ -85.5852498, 42.2930732 ], [ -85.5846276, 42.2931038 ] ] } },
{ "type": "Feature", "properties": { "element": "way", "id": 267682015, "access": null, "canoe": null, "description": null, "fee": null, "informal": null, "surface": null, "tidal": null, "waterway": "stream", "wheelchair": null, "name": "Arcadia Creek", "wikidata": null, "intermittent": null, "tunnel": null, "layer": null }, "geometry": { "type": "LineString", "coordinates": [ [ -85.5846276, 42.2931038 ], [ -85.5842059, 42.2931146 ] ] } },
{ "type": "Feature", "properties": { "element": "way", "id": 267682016, "access": null, "canoe": null, "description": null, "fee": null, "informal": null, "surface": null, "tidal": null, "waterway": "stream", "wheelchair": null, "name": "Arcadia Creek", "wikidata": null, "intermittent": null, "tunnel": null, "layer": null }, "geometry": { "type": "LineString", "coordinates": [ [ -85.5866223, 42.2930414 ], [ -85.5852498, 42.2930732 ] ] } },
{ "type": "Feature", "properties": { "element": "way", "id": 267682018, "access": null, "canoe": null, "description": null, "fee": null, "informal": null, "surface": null, "tidal": null, "waterway": "stream", "wheelchair": null, "name": "Arcadia Creek", "wikidata": null, "intermittent": null, "tunnel": "culvert", "layer": null }, "geometry": { "type": "LineString", "coordinates": [ [ -85.5875473, 42.2930445 ], [ -85.5866223, 42.2930414 ] ] } },
{ "type": "Feature", "properties": { "element": "way", "id": 269245233, "access": null, "canoe": null, "description": null, "fee": null, "informal": null, "surface": null, "tidal": null, "waterway": "stream", "wheelchair": null, "name": "Arcadia Creek", "wikidata": null, "intermittent": null, "tunnel": "culvert", "layer": null }, "geometry": { "type": "LineString", "coordinates": [ [ -85.5842059, 42.2931146 ], [ -85.5841523, 42.2931126 ] ] } },
{ "type": "Feature", "properties": { "element": "way", "id": 269245234, "access": null, "canoe": null, "description": null, "fee": null, "informal": null, "surface": null, "tidal": null, "waterway": "stream", "wheelchair": null, "name": "Arcadia Creek", "wikidata": null, "intermittent": null, "tunnel": null, "layer": null }, "geometry": { "type": "LineString", "coordinates": [ [ -85.5841523, 42.2931126 ], [ -85.5834623, 42.2930959 ] ] } },
{ "type": "Feature", "properties": { "element": "way", "id": 313329453, "access": null, "canoe": null, "description": null, "fee": null, "informal": null, "surface": null, "tidal": null, "waterway": "river", "wheelchair": null, "name": "Portage Creek", "wikidata": null, "intermittent": null, "tunnel": null, "layer": null }, "geometry": { "type": "LineString", "coordinates": [ [ -85.5776652, 42.2417441 ], [ -85.577619, 42.2417878 ], [ -85.5775799, 42.2418333 ], [ -85.5775378, 42.2418993 ], [ -85.5774676, 42.2420342 ], [ -85.5774133, 42.2421192 ], [ -85.5773523, 42.2421971 ], [ -85.5773051, 42.2422795 ], [ -85.5772641, 42.2423655 ], [ -85.5772342, 42.2424656 ], [ -85.5772107, 42.2425551 ], [ -85.5771969, 42.2426457 ], [ -85.5771539, 42.2428925 ], [ -85.5771252, 42.243061 ], [ -85.5771457, 42.24319 ], [ -85.5772031, 42.2433061 ], [ -85.5773035, 42.2433562 ], [ -85.5773917, 42.2433972 ], [ -85.5774368, 42.2434685 ], [ -85.577445, 42.2435414 ], [ -85.5773897, 42.2435899 ], [ -85.5772851, 42.2436734 ], [ -85.5771949, 42.2437523 ], [ -85.5771108, 42.2438662 ], [ -85.577117, 42.2439921 ], [ -85.5771334, 42.2440787 ], [ -85.5770473, 42.2441515 ], [ -85.5769325, 42.2442327 ], [ -85.5768956, 42.244304 ], [ -85.5769161, 42.2444239 ], [ -85.5769878, 42.2444938 ], [ -85.5770391, 42.2445423 ], [ -85.5770452, 42.2446106 ], [ -85.5769755, 42.2446774 ], [ -85.5769027, 42.244704 ], [ -85.576833, 42.24471 ], [ -85.5766772, 42.2446979 ], [ -85.5764558, 42.2446827 ], [ -85.5763574, 42.2447495 ], [ -85.5762549, 42.24488 ], [ -85.5761564, 42.2450014 ], [ -85.5761082, 42.2451304 ], [ -85.5760914, 42.2451753 ], [ -85.5760198, 42.2452584 ], [ -85.5754656, 42.245447 ], [ -85.5753072, 42.2456483 ], [ -85.5751902, 42.2458063 ], [ -85.5750477, 42.2459265 ], [ -85.574724, 42.2460535 ], [ -85.5742677, 42.2462267 ], [ -85.5734448, 42.2462065 ], [ -85.573008, 42.2462151 ], [ -85.5726883, 42.2461285 ], [ -85.5725021, 42.2459287 ], [ -85.5719884, 42.2459034 ], [ -85.5718294, 42.2456777 ], [ -85.5716966, 42.2456091 ], [ -85.5714504, 42.2456812 ], [ -85.5711907, 42.2458254 ], [ -85.5707539, 42.2460188 ], [ -85.5705784, 42.2462354 ], [ -85.5702508, 42.2466655 ], [ -85.5703795, 42.2470004 ], [ -85.5709138, 42.2473497 ], [ -85.5713857, 42.2474681 ], [ -85.5718615, 42.2475922 ], [ -85.5728131, 42.24793 ], [ -85.5735072, 42.2480887 ], [ -85.5740103, 42.2479271 ], [ -85.5741078, 42.2479184 ], [ -85.5742872, 42.2478982 ], [ -85.5747006, 42.2479242 ], [ -85.5750984, 42.2482591 ], [ -85.5751915, 42.2483628 ], [ -85.5753414, 42.2483827 ], [ -85.5755586, 42.2484563 ], [ -85.5756102, 42.2484737 ], [ -85.5756615, 42.2485797 ], [ -85.5756183, 42.2486616 ], [ -85.5756115, 42.2487596 ], [ -85.5758181, 42.2488356 ], [ -85.5760342, 42.2487946 ], [ -85.5762921, 42.2489186 ], [ -85.5764717, 42.2491875 ], [ -85.5765379, 42.2493964 ], [ -85.5763732, 42.2496553 ], [ -85.5762854, 42.2501421 ], [ -85.5760909, 42.250348 ], [ -85.5758168, 42.250455 ], [ -85.5755859, 42.2506859 ], [ -85.5750767, 42.2507199 ], [ -85.5747027, 42.2507339 ], [ -85.5736599, 42.2517063 ], [ -85.5733869, 42.2525405 ], [ -85.5735012, 42.2530974 ], [ -85.5735273, 42.2532247 ], [ -85.5740264, 42.2561401 ], [ -85.5753797, 42.256827 ], [ -85.5756858, 42.2571761 ], [ -85.5757642, 42.2572655 ] ] } },
{ "type": "Feature", "properties": { "element": "way", "id": 468381756, "access": null, "canoe": null, "description": null, "fee": null, "informal": null, "surface": null, "tidal": null, "waterway": "river", "wheelchair": null, "name": null, "wikidata": null, "intermittent": null, "tunnel": null, "layer": null }, "geometry": { "type": "LineString", "coordinates": [ [ -85.5757642, 42.2572655 ], [ -85.5764377, 42.2576317 ], [ -85.5766816, 42.2578784 ], [ -85.5771736, 42.258818 ], [ -85.5771858, 42.2588413 ], [ -85.5771532, 42.2591 ], [ -85.5771126, 42.2593107 ], [ -85.5769256, 42.2594431 ], [ -85.5767548, 42.2595273 ] ] } },
{ "type": "Feature", "properties": { "element": "way", "id": 468381759, "access": null, "canoe": null, "description": null, "fee": null, "informal": null, "surface": null, "tidal": null, "waterway": "river", "wheelchair": null, "name": null, "wikidata": null, "intermittent": null, "tunnel": null, "layer": null }, "geometry": { "type": "LineString", "coordinates": [ [ -85.572421, 42.2608512 ], [ -85.5718275, 42.2610919 ], [ -85.5715754, 42.2613266 ], [ -85.5714697, 42.2616455 ], [ -85.571364, 42.2619524 ], [ -85.5713721, 42.2623375 ], [ -85.5714372, 42.2626805 ], [ -85.5715754, 42.2630175 ], [ -85.5717624, 42.2632161 ], [ -85.5721446, 42.2634387 ], [ -85.5723072, 42.2636915 ], [ -85.5724352, 42.2638967 ], [ -85.5724575, 42.2639483 ], [ -85.5725185, 42.2640069 ], [ -85.5726345, 42.2640585 ], [ -85.5728296, 42.2640813 ], [ -85.5729926, 42.2640838 ], [ -85.5731365, 42.2640826 ], [ -85.5735024, 42.2642631 ], [ -85.5739251, 42.2645524 ] ] } },
{ "type": "Feature", "properties": { "element": "way", "id": 480820201, "access": null, "canoe": null, "description": null, "fee": null, "informal": null, "surface": null, "tidal": null, "waterway": "stream", "wheelchair": null, "name": "West Fork Portage Creek", "wikidata": null, "intermittent": null, "tunnel": null, "layer": null }, "geometry": { "type": "LineString", "coordinates": [ [ -85.6139111, 42.2441137 ], [ -85.6136903, 42.2440327 ], [ -85.6135539, 42.2439024 ], [ -85.6134223, 42.2437027 ], [ -85.6130171, 42.2434836 ], [ -85.6126028, 42.2432446 ], [ -85.6121702, 42.2430506 ], [ -85.6120422, 42.2429694 ], [ -85.6120361, 42.2428837 ], [ -85.6118412, 42.2427349 ], [ -85.6116036, 42.2426312 ], [ -85.6115244, 42.2425049 ], [ -85.6113964, 42.2424147 ], [ -85.6113294, 42.2423741 ], [ -85.6113355, 42.2422117 ], [ -85.6111405, 42.2420764 ], [ -85.6110065, 42.242144 ], [ -85.6108481, 42.2421666 ], [ -85.6107689, 42.2420629 ], [ -85.6107445, 42.2419501 ], [ -85.6106714, 42.2419185 ], [ -85.6104765, 42.2420448 ], [ -85.6101475, 42.2420493 ], [ -85.6098063, 42.2419636 ], [ -85.6096014, 42.2417945 ], [ -85.6095459, 42.2415414 ], [ -85.6093803, 42.2414294 ], [ -85.6092701, 42.2413908 ], [ -85.6089344, 42.2413302 ], [ -85.6085695, 42.2413682 ], [ -85.6083348, 42.2414619 ], [ -85.6082126, 42.2413106 ], [ -85.6080516, 42.2413367 ], [ -85.6080591, 42.2414856 ], [ -85.6079652, 42.2415218 ], [ -85.6079616, 42.2414115 ], [ -85.6079374, 42.2411448 ], [ -85.6078123, 42.2410781 ], [ -85.6076592, 42.2411284 ], [ -85.6076659, 42.2412863 ], [ -85.6075438, 42.2413789 ], [ -85.6073692, 42.2412961 ], [ -85.607338, 42.2411491 ], [ -85.6072482, 42.2410847 ], [ -85.6071316, 42.2411788 ], [ -85.6070345, 42.241093 ], [ -85.6067965, 42.2411247 ], [ -85.6066869, 42.2412149 ], [ -85.6065346, 42.2412374 ], [ -85.6064736, 42.241278 ], [ -85.6063274, 42.2412149 ], [ -85.6061629, 42.2411563 ], [ -85.6059984, 42.2409939 ], [ -85.6059131, 42.2409488 ], [ -85.6058461, 42.2409894 ], [ -85.605773, 42.2410751 ], [ -85.6056755, 42.2410751 ], [ -85.605578, 42.2410209 ], [ -85.6055173, 42.2410161 ], [ -85.6054527, 42.241011 ], [ -85.6053221, 42.2409803 ], [ -85.605162, 42.2409909 ], [ -85.6048705, 42.2410111 ], [ -85.6047774, 42.2410212 ], [ -85.6046812, 42.2409483 ], [ -85.604624, 42.2408655 ], [ -85.6045312, 42.2407967 ], [ -85.6044597, 42.2407315 ], [ -85.6043455, 42.2406875 ], [ -85.6043336, 42.240617 ], [ -85.6042145, 42.2407051 ], [ -85.604105, 42.2407615 ], [ -85.6040407, 42.2407051 ], [ -85.6040026, 42.2406769 ], [ -85.6039503, 42.2407051 ], [ -85.6039193, 42.2406346 ], [ -85.6038027, 42.2405711 ], [ -85.6037241, 42.2404865 ], [ -85.6036408, 42.2404901 ], [ -85.6035789, 42.2405324 ], [ -85.6033741, 42.2403896 ], [ -85.6032813, 42.2404812 ], [ -85.603017, 42.2404566 ], [ -85.6029646, 42.2404002 ], [ -85.6027956, 42.2403561 ], [ -85.6027242, 42.2403191 ], [ -85.6026885, 42.2401992 ], [ -85.6026218, 42.2400441 ], [ -85.6025742, 42.2399278 ], [ -85.6024885, 42.239889 ], [ -85.602398, 42.2398132 ], [ -85.6022552, 42.2398326 ], [ -85.6021647, 42.2398555 ], [ -85.5997387, 42.2394238 ], [ -85.5985493, 42.239282 ], [ -85.595243, 42.2392596 ], [ -85.5928541, 42.2391253 ], [ -85.5925213, 42.239441 ], [ -85.5922609, 42.2395253 ], [ -85.5913756, 42.2406554 ], [ -85.5912292, 42.2409333 ], [ -85.591277, 42.241431 ], [ -85.5912654, 42.2418308 ] ] } },
{ "type": "Feature", "properties": { "element": "way", "id": 782822991, "access": null, "canoe": null, "description": null, "fee": null, "informal": null, "surface": null, "tidal": null, "waterway": "river", "wheelchair": null, "name": null, "wikidata": null, "intermittent": null, "tunnel": null, "layer": null }, "geometry": { "type": "LineString", "coordinates": [ [ -85.5765678, 42.2597379 ], [ -85.5761938, 42.259762 ], [ -85.575462, 42.2598462 ], [ -85.5747546, 42.2600087 ], [ -85.5742667, 42.2602554 ], [ -85.573722, 42.2604119 ], [ -85.5729495, 42.2605684 ], [ -85.572421, 42.2608512 ] ] } },
{ "type": "Feature", "properties": { "element": "way", "id": 782822992, "access": null, "canoe": null, "description": null, "fee": null, "informal": null, "surface": null, "tidal": null, "waterway": "river", "wheelchair": null, "name": null, "wikidata": null, "intermittent": null, "tunnel": "culvert", "layer": "-1" }, "geometry": { "type": "LineString", "coordinates": [ [ -85.5767548, 42.2595273 ], [ -85.5765678, 42.2597379 ] ] } },
{ "type": "Feature", "properties": { "element": "way", "id": 880680444, "access": null, "canoe": null, "description": null, "fee": null, "informal": null, "surface": null, "tidal": null, "waterway": "stream", "wheelchair": null, "name": null, "wikidata": null, "intermittent": null, "tunnel": "culvert", "layer": "-1" }, "geometry": { "type": "LineString", "coordinates": [ [ -85.6361944, 42.2645541 ], [ -85.6361741, 42.2645522 ], [ -85.6359412, 42.2644344 ] ] } },
{ "type": "Feature", "properties": { "element": "way", "id": 919083305, "access": null, "canoe": null, "description": null, "fee": null, "informal": null, "surface": null, "tidal": null, "waterway": "weir", "wheelchair": null, "name": null, "wikidata": null, "intermittent": null, "tunnel": null, "layer": null }, "geometry": { "type": "LineString", "coordinates": [ [ -85.5740748, 42.248024 ], [ -85.5741078, 42.2479184 ], [ -85.5741178, 42.247868 ] ] } },
{ "type": "Feature", "properties": { "element": "way", "id": 942386268, "access": null, "canoe": null, "description": null, "fee": null, "informal": null, "surface": null, "tidal": null, "waterway": "stream", "wheelchair": null, "name": "West Fork Portage Creek", "wikidata": null, "intermittent": null, "tunnel": null, "layer": null }, "geometry": { "type": "LineString", "coordinates": [ [ -85.6192291, 42.2468558 ], [ -85.6189318, 42.2467935 ], [ -85.6187521, 42.2467833 ], [ -85.6186232, 42.2467391 ], [ -85.6184885, 42.2467277 ], [ -85.6183287, 42.2467778 ], [ -85.6180679, 42.2468059 ], [ -85.6177976, 42.2469007 ], [ -85.6176506, 42.2469393 ], [ -85.6175653, 42.2470236 ], [ -85.6173282, 42.2470236 ], [ -85.6171622, 42.2470973 ], [ -85.6170105, 42.2470587 ], [ -85.6168303, 42.2468235 ], [ -85.6168066, 42.2467112 ], [ -85.6166501, 42.2466199 ], [ -85.616745, 42.246469 ], [ -85.6166075, 42.2461671 ], [ -85.6165126, 42.2461425 ], [ -85.6165126, 42.2459775 ], [ -85.6163087, 42.2458266 ], [ -85.6160384, 42.2457248 ], [ -85.6156781, 42.2456932 ], [ -85.6156307, 42.2456371 ], [ -85.6155595, 42.2455949 ], [ -85.6155738, 42.2455037 ], [ -85.6151091, 42.2454159 ], [ -85.6150332, 42.2452685 ], [ -85.6147345, 42.2452334 ], [ -85.6145448, 42.2451351 ], [ -85.6144405, 42.2450368 ], [ -85.6143551, 42.2448683 ], [ -85.6143125, 42.2447279 ], [ -85.614284, 42.2445278 ], [ -85.6143092, 42.2442611 ] ] } },
{ "type": "Feature", "properties": { "element": "way", "id": 942641600, "access": null, "canoe": null, "description": null, "fee": null, "informal": null, "surface": null, "tidal": null, "waterway": "stream", "wheelchair": null, "name": "West Fork Portage Creek", "wikidata": null, "intermittent": null, "tunnel": "culvert", "layer": "-1" }, "geometry": { "type": "LineString", "coordinates": [ [ -85.5878789, 42.2446666 ], [ -85.5874541, 42.2452812 ], [ -85.5859094, 42.246001 ] ] } },
{ "type": "Feature", "properties": { "element": "way", "id": 942641603, "access": null, "canoe": null, "description": null, "fee": null, "informal": null, "surface": null, "tidal": null, "waterway": "stream", "wheelchair": null, "name": "West Fork Portage Creek", "wikidata": null, "intermittent": null, "tunnel": null, "layer": null }, "geometry": { "type": "LineString", "coordinates": [ [ -85.5859094, 42.246001 ], [ -85.5858126, 42.2462066 ], [ -85.5857958, 42.2468048 ], [ -85.5857453, 42.2469325 ], [ -85.5859883, 42.2470291 ], [ -85.5862132, 42.2470439 ], [ -85.5862212, 42.2471854 ], [ -85.5860679, 42.2473268 ], [ -85.5858668, 42.2472428 ], [ -85.5856797, 42.2472753 ], [ -85.5855562, 42.2474123 ], [ -85.5853173, 42.2474816 ], [ -85.5852835, 42.2475951 ], [ -85.5852178, 42.2476584 ], [ -85.5850625, 42.247657 ], [ -85.5848296, 42.2476083 ], [ -85.5847818, 42.2476555 ] ] } },
{ "type": "Feature", "properties": { "element": "way", "id": 942641604, "access": null, "canoe": null, "description": null, "fee": null, "informal": null, "surface": null, "tidal": null, "waterway": "stream", "wheelchair": null, "name": "West Fork Portage Creek", "wikidata": null, "intermittent": null, "tunnel": null, "layer": null }, "geometry": { "type": "LineString", "coordinates": [ [ -85.5847698, 42.2478102 ], [ -85.5847519, 42.2478692 ], [ -85.5847041, 42.2478765 ], [ -85.5845787, 42.2478441 ], [ -85.5844453, 42.2478382 ], [ -85.584308, 42.2478574 ], [ -85.5842343, 42.2478972 ], [ -85.5841248, 42.2479134 ], [ -85.5839775, 42.247934 ], [ -85.5838819, 42.2479193 ], [ -85.5838222, 42.2479178 ], [ -85.5833503, 42.2479016 ], [ -85.5829581, 42.2478854 ], [ -85.5828904, 42.2478854 ], [ -85.5821219, 42.2478338 ], [ -85.5820264, 42.2478176 ], [ -85.5820184, 42.247797 ] ] } },
{ "type": "Feature", "properties": { "element": "way", "id": 942641605, "access": null, "canoe": null, "description": null, "fee": null, "informal": null, "surface": null, "tidal": null, "waterway": "stream", "wheelchair": null, "name": "West Fork Portage Creek", "wikidata": null, "intermittent": null, "tunnel": "culvert", "layer": "-1" }, "geometry": { "type": "LineString", "coordinates": [ [ -85.5847818, 42.2476555 ], [ -85.5847698, 42.2478102 ] ] } },
{ "type": "Feature", "properties": { "element": "way", "id": 942641606, "access": null, "canoe": null, "description": null, "fee": null, "informal": null, "surface": null, "tidal": null, "waterway": "stream", "wheelchair": null, "name": "West Fork Portage Creek", "wikidata": null, "intermittent": null, "tunnel": null, "layer": null }, "geometry": { "type": "LineString", "coordinates": [ [ -85.5819945, 42.2473873 ], [ -85.5819706, 42.2472767 ], [ -85.5818731, 42.2471883 ], [ -85.5816083, 42.2470056 ], [ -85.5814948, 42.2469437 ], [ -85.5813654, 42.2469849 ], [ -85.5811484, 42.2470866 ], [ -85.5810608, 42.2470866 ], [ -85.5809772, 42.247063 ], [ -85.5808338, 42.2469112 ], [ -85.5804755, 42.2467359 ], [ -85.5803301, 42.2466076 ], [ -85.5803082, 42.2465575 ], [ -85.5802545, 42.2465369 ] ] } },
{ "type": "Feature", "properties": { "element": "way", "id": 942641607, "access": null, "canoe": null, "description": null, "fee": null, "informal": null, "surface": null, "tidal": null, "waterway": "stream", "wheelchair": null, "name": "West Fork Portage Creek", "wikidata": null, "intermittent": null, "tunnel": "culvert", "layer": "-1" }, "geometry": { "type": "LineString", "coordinates": [ [ -85.5819965, 42.2475007 ], [ -85.5819945, 42.2473873 ] ] } },
{ "type": "Feature", "properties": { "element": "way", "id": 942641608, "access": null, "canoe": null, "description": null, "fee": null, "informal": null, "surface": null, "tidal": null, "waterway": "stream", "wheelchair": null, "name": "West Fork Portage Creek", "wikidata": null, "intermittent": null, "tunnel": null, "layer": null }, "geometry": { "type": "LineString", "coordinates": [ [ -85.5820045, 42.2477218 ], [ -85.5819965, 42.2475007 ] ] } },
{ "type": "Feature", "properties": { "element": "way", "id": 942641609, "access": null, "canoe": null, "description": null, "fee": null, "informal": null, "surface": null, "tidal": null, "waterway": "stream", "wheelchair": null, "name": "West Fork Portage Creek", "wikidata": null, "intermittent": null, "tunnel": "culvert", "layer": "-1" }, "geometry": { "type": "LineString", "coordinates": [ [ -85.5820184, 42.247797 ], [ -85.5820045, 42.2477218 ] ] } },
{ "type": "Feature", "properties": { "element": "way", "id": 942641612, "access": null, "canoe": null, "description": null, "fee": null, "informal": null, "surface": null, "tidal": null, "waterway": "stream", "wheelchair": null, "name": "West Fork Portage Creek", "wikidata": null, "intermittent": null, "tunnel": null, "layer": null }, "geometry": { "type": "LineString", "coordinates": [ [ -85.579713, 42.2465177 ], [ -85.5795756, 42.2464912 ], [ -85.5794064, 42.2463821 ], [ -85.5793128, 42.2462318 ], [ -85.579265, 42.2462377 ], [ -85.5791854, 42.2462731 ], [ -85.5791157, 42.2462598 ], [ -85.5789365, 42.2460166 ], [ -85.5787653, 42.2459606 ], [ -85.578612, 42.2459606 ], [ -85.5785244, 42.2459901 ], [ -85.5782875, 42.2459253 ], [ -85.5781043, 42.2459061 ], [ -85.5780028, 42.2459312 ], [ -85.5778933, 42.2460093 ], [ -85.5779749, 42.2460712 ], [ -85.5779888, 42.2461684 ], [ -85.5778833, 42.2462598 ], [ -85.5777659, 42.2462701 ], [ -85.5775488, 42.2461714 ], [ -85.5773318, 42.2463158 ], [ -85.5770591, 42.2464765 ], [ -85.5768301, 42.2466563 ], [ -85.5767326, 42.2467462 ], [ -85.576649, 42.2469304 ], [ -85.5767366, 42.247063 ], [ -85.5768978, 42.2472001 ], [ -85.5769257, 42.2474182 ], [ -85.5768819, 42.2474934 ], [ -85.576647, 42.247486 ], [ -85.576428, 42.2475538 ], [ -85.5763563, 42.2476629 ], [ -85.5761871, 42.247657 ], [ -85.5759342, 42.2475626 ], [ -85.575773, 42.2475435 ], [ -85.575755, 42.2475641 ], [ -85.575765, 42.2476171 ], [ -85.5758765, 42.2476834 ], [ -85.5758566, 42.247791 ], [ -85.5757093, 42.2483422 ], [ -85.5755586, 42.2484563 ] ] } },
{ "type": "Feature", "properties": { "element": "way", "id": 942641613, "access": null, "canoe": null, "description": null, "fee": null, "informal": null, "surface": null, "tidal": null, "waterway": "stream", "wheelchair": null, "name": "West Fork Portage Creek", "wikidata": null, "intermittent": null, "tunnel": "culvert", "layer": "-1" }, "geometry": { "type": "LineString", "coordinates": [ [ -85.5802545, 42.2465369 ], [ -85.579713, 42.2465177 ] ] } },
{ "type": "Feature", "properties": { "element": "way", "id": 991717213, "access": null, "canoe": null, "description": null, "fee": null, "informal": null, "surface": null, "tidal": null, "waterway": "stream", "wheelchair": null, "name": null, "wikidata": null, "intermittent": null, "tunnel": null, "layer": null }, "geometry": { "type": "LineString", "coordinates": [ [ -85.5920594, 42.2751701 ], [ -85.5920181, 42.2751505 ], [ -85.5919913, 42.2751441 ], [ -85.5919719, 42.2751476 ], [ -85.5919658, 42.2751639 ], [ -85.5919518, 42.2751823 ], [ -85.591933, 42.2751992 ], [ -85.5918776, 42.2752185 ] ] } },
{ "type": "Feature", "properties": { "element": "way", "id": 991717241, "access": null, "canoe": null, "description": null, "fee": null, "informal": null, "surface": null, "tidal": null, "waterway": "stream", "wheelchair": null, "name": "Axtell Creek", "wikidata": null, "intermittent": null, "tunnel": null, "layer": null }, "geometry": { "type": "LineString", "coordinates": [ [ -85.5911062, 42.2760625 ], [ -85.5910271, 42.2761299 ], [ -85.5909278, 42.2762197 ], [ -85.5908279, 42.2762966 ], [ -85.5907602, 42.2763621 ], [ -85.5906898, 42.2764385 ], [ -85.5906301, 42.2764921 ], [ -85.5905785, 42.2765333 ], [ -85.5905275, 42.276568 ], [ -85.5904122, 42.2766152 ], [ -85.5903056, 42.2766504 ], [ -85.5901963, 42.2766747 ], [ -85.5900722, 42.2766906 ], [ -85.5899616, 42.2766955 ], [ -85.5898368, 42.2766965 ], [ -85.5897624, 42.2767392 ] ] } },
{ "type": "Feature", "properties": { "element": "way", "id": 991717242, "access": null, "canoe": null, "description": null, "fee": null, "informal": null, "surface": null, "tidal": null, "waterway": "stream", "wheelchair": null, "name": null, "wikidata": null, "intermittent": null, "tunnel": "culvert", "layer": null }, "geometry": { "type": "LineString", "coordinates": [ [ -85.5916896, 42.2753971 ], [ -85.5916051, 42.2755316 ] ] } },
{ "type": "Feature", "properties": { "element": "way", "id": 991717243, "access": null, "canoe": null, "description": null, "fee": null, "informal": null, "surface": null, "tidal": null, "waterway": "stream", "wheelchair": null, "name": "Axtell Creek", "wikidata": null, "intermittent": null, "tunnel": null, "layer": null }, "geometry": { "type": "LineString", "coordinates": [ [ -85.5922736, 42.2745234 ], [ -85.5922508, 42.2745383 ], [ -85.5922133, 42.274567 ], [ -85.5921871, 42.2746077 ], [ -85.5921717, 42.2746524 ], [ -85.5921724, 42.274702 ], [ -85.5921824, 42.2747432 ], [ -85.5921918, 42.2747824 ], [ -85.5921764, 42.2748171 ], [ -85.5921616, 42.2748667 ], [ -85.5921301, 42.2749084 ], [ -85.5921033, 42.2749531 ], [ -85.5920865, 42.2749947 ], [ -85.5920597, 42.2750235 ], [ -85.5920369, 42.2750448 ], [ -85.591998, 42.2750597 ], [ -85.5919558, 42.275085 ], [ -85.591929, 42.2751069 ], [ -85.5919035, 42.2751292 ], [ -85.591884, 42.2751585 ], [ -85.591874, 42.2751882 ], [ -85.5918776, 42.2752185 ], [ -85.591872, 42.2752403 ], [ -85.5918404, 42.2752646 ], [ -85.5918029, 42.2752964 ], [ -85.5917586, 42.2753247 ], [ -85.5917251, 42.2753614 ], [ -85.5916896, 42.2753971 ] ] } },
{ "type": "Feature", "properties": { "element": "way", "id": 991717244, "access": null, "canoe": null, "description": null, "fee": null, "informal": null, "surface": null, "tidal": null, "waterway": "stream", "wheelchair": null, "name": "Axtell Creek", "wikidata": null, "intermittent": null, "tunnel": "culvert", "layer": "-1" }, "geometry": { "type": "LineString", "coordinates": [ [ -85.5927484, 42.2740019 ], [ -85.5922736, 42.2745234 ] ] } },
{ "type": "Feature", "properties": { "element": "way", "id": 991717245, "access": null, "canoe": null, "description": null, "fee": null, "informal": null, "surface": null, "tidal": null, "waterway": "stream", "wheelchair": null, "name": "Axtell Creek", "wikidata": null, "intermittent": null, "tunnel": null, "layer": null }, "geometry": { "type": "LineString", "coordinates": [ [ -85.5938367, 42.2724945 ], [ -85.593783, 42.2725144 ], [ -85.5937153, 42.2725318 ], [ -85.5936328, 42.2725372 ], [ -85.5935061, 42.2725392 ], [ -85.5934189, 42.2725412 ], [ -85.5933525, 42.2725412 ], [ -85.5932909, 42.2725457 ], [ -85.5932265, 42.2726196 ], [ -85.593207, 42.2727258 ], [ -85.5931956, 42.2727967 ], [ -85.59314, 42.2728677 ], [ -85.5931178, 42.2729426 ], [ -85.5931064, 42.2730006 ], [ -85.5930756, 42.2730875 ], [ -85.5930622, 42.2731301 ], [ -85.5930649, 42.2731654 ], [ -85.5930609, 42.2732289 ], [ -85.5930414, 42.2733038 ], [ -85.5930085, 42.2733926 ], [ -85.5929837, 42.273475 ], [ -85.592963, 42.2735549 ], [ -85.5929516, 42.2736149 ], [ -85.59292, 42.2736859 ], [ -85.592908, 42.2737255 ], [ -85.5928845, 42.2738188 ], [ -85.592855, 42.2738809 ], [ -85.5928168, 42.2739215 ], [ -85.5927946, 42.2739652 ], [ -85.5927484, 42.2740019 ] ] } },
{ "type": "Feature", "properties": { "element": "way", "id": 991743148, "access": null, "canoe": null, "description": null, "fee": null, "informal": null, "surface": null, "tidal": null, "waterway": "tidal_channel", "wheelchair": null, "name": null, "wikidata": null, "intermittent": "yes", "tunnel": null, "layer": null }, "geometry": { "type": "LineString", "coordinates": [ [ -85.5927891, 42.2759645 ], [ -85.5927705, 42.2759513 ], [ -85.5927578, 42.2759389 ], [ -85.5927464, 42.2759176 ], [ -85.5927437, 42.2758903 ], [ -85.5927383, 42.27587 ], [ -85.5927303, 42.275858 ], [ -85.5927162, 42.2758531 ], [ -85.5927021, 42.2758531 ], [ -85.5926954, 42.2758466 ] ] } },
{ "type": "Feature", "properties": { "element": "way", "id": 995003856, "access": null, "canoe": null, "description": null, "fee": null, "informal": null, "surface": null, "tidal": null, "waterway": "tidal_channel", "wheelchair": null, "name": null, "wikidata": null, "intermittent": null, "tunnel": null, "layer": null }, "geometry": { "type": "LineString", "coordinates": [ [ -85.5781765, 42.2577389 ], [ -85.5779962, 42.2577958 ], [ -85.5778946, 42.257819 ], [ -85.5777704, 42.257853 ], [ -85.5776108, 42.2578921 ], [ -85.5774475, 42.2578856 ], [ -85.577303, 42.2579158 ], [ -85.5773688, 42.2580525 ], [ -85.577432, 42.2581856 ], [ -85.5774505, 42.2582905 ], [ -85.5775965, 42.2585246 ], [ -85.577671, 42.2586563 ], [ -85.5776957, 42.2587408 ], [ -85.5777327, 42.2587768 ], [ -85.5777458, 42.2588373 ], [ -85.577762, 42.2588846 ], [ -85.577809, 42.2589303 ], [ -85.5778452, 42.258944 ], [ -85.5779038, 42.258944 ], [ -85.5779401, 42.2589132 ], [ -85.5780049, 42.2588938 ], [ -85.5780682, 42.2589172 ], [ -85.5781245, 42.2589167 ], [ -85.5781623, 42.2589149 ] ] } },
{ "type": "Feature", "properties": { "element": "way", "id": 995003857, "access": null, "canoe": null, "description": null, "fee": null, "informal": null, "surface": null, "tidal": null, "waterway": "tidal_channel", "wheelchair": null, "name": null, "wikidata": null, "intermittent": null, "tunnel": null, "layer": null }, "geometry": { "type": "LineString", "coordinates": [ [ -85.577671, 42.2586563 ], [ -85.5776216, 42.2586945 ], [ -85.5775522, 42.2587407 ], [ -85.5774558, 42.2587538 ], [ -85.5773487, 42.2587744 ], [ -85.5773145, 42.2587829 ] ] } },
{ "type": "Feature", "properties": { "element": "way", "id": 995003858, "access": null, "canoe": null, "description": null, "fee": null, "informal": null, "surface": null, "tidal": null, "waterway": "tidal_channel", "wheelchair": null, "name": null, "wikidata": null, "intermittent": null, "tunnel": null, "layer": null }, "geometry": { "type": "LineString", "coordinates": [ [ -85.5772106, 42.2588088 ], [ -85.5771736, 42.258818 ] ] } },
{ "type": "Feature", "properties": { "element": "way", "id": 995003859, "access": null, "canoe": null, "description": null, "fee": null, "informal": null, "surface": null, "tidal": null, "waterway": "tidal_channel", "wheelchair": null, "name": null, "wikidata": null, "intermittent": null, "tunnel": "culvert", "layer": "-1" }, "geometry": { "type": "LineString", "coordinates": [ [ -85.5773145, 42.2587829 ], [ -85.5772106, 42.2588088 ] ] } },
{ "type": "Feature", "properties": { "element": "way", "id": 995003871, "access": null, "canoe": null, "description": null, "fee": null, "informal": null, "surface": null, "tidal": null, "waterway": "tidal_channel", "wheelchair": null, "name": null, "wikidata": null, "intermittent": null, "tunnel": null, "layer": null }, "geometry": { "type": "LineString", "coordinates": [ [ -85.5735012, 42.2530974 ], [ -85.5743314, 42.2536135 ], [ -85.5745274, 42.2538775 ], [ -85.574625, 42.2542338 ], [ -85.5747336, 42.254753 ], [ -85.5747747, 42.255175 ], [ -85.5748617, 42.2556462 ], [ -85.5749354, 42.2558493 ], [ -85.5751393, 42.2560486 ], [ -85.5753245, 42.2562427 ], [ -85.5755308, 42.2564046 ], [ -85.5756707, 42.2565905 ], [ -85.5756877, 42.2568178 ], [ -85.5756858, 42.2571761 ] ] } },
{ "type": "Feature", "properties": { "element": "way", "id": 1005652860, "access": null, "canoe": null, "description": null, "fee": null, "informal": null, "surface": null, "tidal": null, "waterway": "stream", "wheelchair": null, "name": null, "wikidata": null, "intermittent": null, "tunnel": null, "layer": null }, "geometry": { "type": "LineString", "coordinates": [ [ -85.5613456, 42.3130185 ], [ -85.5621804, 42.3128422 ], [ -85.5623418, 42.3128315 ], [ -85.5624953, 42.3127608 ], [ -85.5626313, 42.3126216 ], [ -85.5627811, 42.3124017 ], [ -85.5628776, 42.312262 ], [ -85.5630542, 42.3121496 ], [ -85.5631715, 42.3120393 ], [ -85.5632062, 42.3118777 ], [ -85.5632547, 42.3116978 ], [ -85.563403, 42.3115463 ], [ -85.5634493, 42.3114275 ], [ -85.5634081, 42.3112173 ], [ -85.5633031, 42.3108794 ], [ -85.563122, 42.3107497 ], [ -85.5630236, 42.3106427 ], [ -85.562999, 42.3104992 ], [ -85.563075, 42.3103234 ], [ -85.5630924, 42.3103004 ] ] } },
{ "type": "Feature", "properties": { "element": "way", "id": 1005652861, "access": null, "canoe": null, "description": null, "fee": null, "informal": null, "surface": null, "tidal": null, "waterway": "stream", "wheelchair": null, "name": null, "wikidata": null, "intermittent": null, "tunnel": null, "layer": null }, "geometry": { "type": "LineString", "coordinates": [ [ -85.5641146, 42.3099539 ], [ -85.5642401, 42.3099487 ], [ -85.5643218, 42.3099111 ], [ -85.5644724, 42.3098862 ], [ -85.5645869, 42.3098855 ], [ -85.5646965, 42.3098185 ], [ -85.5647812, 42.3097625 ], [ -85.5649117, 42.3097249 ], [ -85.5650412, 42.3097234 ], [ -85.5651827, 42.3097264 ], [ -85.5652574, 42.309691 ], [ -85.5653849, 42.3096726 ], [ -85.5655065, 42.3096527 ], [ -85.56562, 42.3096092 ], [ -85.5656688, 42.3095481 ], [ -85.5657206, 42.3094324 ], [ -85.5657854, 42.3093661 ], [ -85.565892, 42.3093167 ], [ -85.5659667, 42.3092549 ], [ -85.5659966, 42.309176 ], [ -85.5660192, 42.3090929 ] ] } },
{ "type": "Feature", "properties": { "element": "way", "id": 1005652862, "access": null, "canoe": null, "description": null, "fee": null, "informal": null, "surface": null, "tidal": null, "waterway": "stream", "wheelchair": null, "name": null, "wikidata": null, "intermittent": null, "tunnel": "culvert", "layer": "-1" }, "geometry": { "type": "LineString", "coordinates": [ [ -85.5630924, 42.3103004 ], [ -85.5631497, 42.3102243 ] ] } },
{ "type": "Feature", "properties": { "element": "way", "id": 1005652863, "access": null, "canoe": null, "description": null, "fee": null, "informal": null, "surface": null, "tidal": null, "waterway": "stream", "wheelchair": null, "name": null, "wikidata": null, "intermittent": null, "tunnel": null, "layer": null }, "geometry": { "type": "LineString", "coordinates": [ [ -85.5631497, 42.3102243 ], [ -85.5631979, 42.3101605 ], [ -85.5633216, 42.3100689 ], [ -85.5634641, 42.3100159 ], [ -85.5635866, 42.3099651 ], [ -85.5636886, 42.3099148 ], [ -85.5638102, 42.3099148 ], [ -85.5639427, 42.3099373 ], [ -85.5639794, 42.3099408 ] ] } },
{ "type": "Feature", "properties": { "element": "way", "id": 1005652864, "access": null, "canoe": null, "description": null, "fee": null, "informal": null, "surface": null, "tidal": null, "waterway": "stream", "wheelchair": null, "name": null, "wikidata": null, "intermittent": null, "tunnel": "culvert", "layer": "-1" }, "geometry": { "type": "LineString", "coordinates": [ [ -85.5639794, 42.3099408 ], [ -85.5641146, 42.3099539 ] ] } },
{ "type": "Feature", "properties": { "element": "way", "id": 1333587227, "access": null, "canoe": null, "description": null, "fee": null, "informal": null, "surface": null, "tidal": null, "waterway": "stream", "wheelchair": null, "name": null, "wikidata": null, "intermittent": null, "tunnel": null, "layer": null }, "geometry": { "type": "LineString", "coordinates": [ [ -85.5364505, 42.2549378 ], [ -85.5370852, 42.2543439 ], [ -85.5371175, 42.2542539 ], [ -85.5371018, 42.2540225 ], [ -85.5371018, 42.2537338 ], [ -85.5370271, 42.2535578 ], [ -85.5366177, 42.253091 ], [ -85.5359318, 42.2522312 ], [ -85.5352901, 42.251488 ], [ -85.5348531, 42.2510028 ], [ -85.5345589, 42.2506277 ] ] } },
{ "type": "Feature", "properties": { "element": "way", "id": 1333587228, "access": null, "canoe": null, "description": null, "fee": null, "informal": null, "surface": null, "tidal": null, "waterway": "stream", "wheelchair": null, "name": null, "wikidata": null, "intermittent": null, "tunnel": null, "layer": null }, "geometry": { "type": "LineString", "coordinates": [ [ -85.5342877, 42.2504443 ], [ -85.534164, 42.2502699 ], [ -85.5338717, 42.2499917 ], [ -85.533611, 42.2497901 ], [ -85.5334757, 42.2496924 ], [ -85.5334356, 42.2496182 ], [ -85.5333955, 42.2495934 ], [ -85.5332869, 42.2495897 ], [ -85.5332619, 42.2495415 ], [ -85.5332652, 42.2495118 ], [ -85.5332368, 42.2494475 ], [ -85.5331048, 42.249335 ], [ -85.5329845, 42.2492905 ], [ -85.5328993, 42.2492224 ], [ -85.5328191, 42.2491322 ], [ -85.5328124, 42.2490926 ], [ -85.532749, 42.2490604 ], [ -85.5326019, 42.2490258 ], [ -85.5324583, 42.2489528 ] ] } },
{ "type": "Feature", "properties": { "element": "way", "id": 1333587229, "access": null, "canoe": null, "description": null, "fee": null, "informal": null, "surface": null, "tidal": null, "waterway": "stream", "wheelchair": null, "name": null, "wikidata": null, "intermittent": null, "tunnel": "culvert", "layer": "-1" }, "geometry": { "type": "LineString", "coordinates": [ [ -85.5345589, 42.2506277 ], [ -85.5342877, 42.2504443 ] ] } },
{ "type": "Feature", "properties": { "element": "way", "id": 1486818723, "access": null, "canoe": null, "description": null, "fee": null, "informal": null, "surface": null, "tidal": null, "waterway": "stream", "wheelchair": null, "name": "Axtell Creek", "wikidata": null, "intermittent": null, "tunnel": null, "layer": null }, "geometry": { "type": "LineString", "coordinates": [ [ -85.5911277, 42.2760421 ], [ -85.5911062, 42.2760625 ] ] } },
{ "type": "Feature", "properties": { "element": "way", "id": 1486818724, "access": null, "canoe": null, "description": null, "fee": null, "informal": null, "surface": null, "tidal": null, "waterway": "stream", "wheelchair": null, "name": "Axtell Creek", "wikidata": null, "intermittent": null, "tunnel": null, "layer": null }, "geometry": { "type": "LineString", "coordinates": [ [ -85.5916051, 42.2755316 ], [ -85.5915508, 42.2755604 ], [ -85.5914904, 42.2755966 ], [ -85.5914274, 42.2756645 ], [ -85.5913845, 42.2757281 ], [ -85.5913603, 42.2757816 ], [ -85.591304, 42.275864 ], [ -85.5912483, 42.2759295 ], [ -85.5911277, 42.2760421 ] ] } },
{ "type": "Feature", "properties": { "element": "way", "id": 1486818733, "access": null, "canoe": null, "description": null, "fee": null, "informal": null, "surface": null, "tidal": null, "waterway": "stream", "wheelchair": null, "name": "Axtell Creek", "wikidata": null, "intermittent": null, "tunnel": "culvert", "layer": "-1" }, "geometry": { "type": "LineString", "coordinates": [ [ -85.5939902, 42.2723214 ], [ -85.5938367, 42.2724945 ] ] } },
{ "type": "Feature", "properties": { "element": "way", "id": 1486818734, "access": null, "canoe": null, "description": null, "fee": null, "informal": null, "surface": null, "tidal": null, "waterway": "stream", "wheelchair": null, "name": "Axtell Creek", "wikidata": null, "intermittent": null, "tunnel": null, "layer": null }, "geometry": { "type": "LineString", "coordinates": [ [ -85.5969635, 42.2710234 ], [ -85.5968079, 42.2710412 ], [ -85.5965987, 42.2710293 ], [ -85.5964136, 42.2710134 ], [ -85.5962849, 42.2710392 ], [ -85.5961615, 42.2710928 ], [ -85.595955, 42.2711226 ], [ -85.5958101, 42.2711266 ], [ -85.5956358, 42.2712238 ], [ -85.5955714, 42.2713231 ], [ -85.5955741, 42.2714124 ], [ -85.5954668, 42.2715017 ], [ -85.5953327, 42.271591 ], [ -85.5952656, 42.2716644 ], [ -85.5952093, 42.2717071 ], [ -85.5951868, 42.2717622 ], [ -85.5951201, 42.2718143 ], [ -85.5950363, 42.2718411 ], [ -85.5949813, 42.2718738 ], [ -85.5948858, 42.2719009 ], [ -85.5948348, 42.2719274 ], [ -85.5948083, 42.2719532 ], [ -85.5948097, 42.2719641 ], [ -85.5947708, 42.2720008 ], [ -85.5946621, 42.2720465 ], [ -85.5944382, 42.2720892 ], [ -85.5942906, 42.2720951 ], [ -85.594174, 42.2721209 ], [ -85.5941002, 42.2721765 ], [ -85.5940506, 42.2722043 ], [ -85.5939983, 42.2722668 ], [ -85.5939902, 42.2723214 ] ] } },
{ "type": "Feature", "properties": { "element": "way", "id": 1486818735, "access": null, "canoe": null, "description": null, "fee": null, "informal": null, "surface": null, "tidal": null, "waterway": "stream", "wheelchair": null, "name": "Axtell Creek", "wikidata": null, "intermittent": null, "tunnel": "culvert", "layer": "-1" }, "geometry": { "type": "LineString", "coordinates": [ [ -85.5853676, 42.2791668 ], [ -85.5851475, 42.2791591 ] ] } },
{ "type": "Feature", "properties": { "element": "way", "id": 1486818736, "access": null, "canoe": null, "description": null, "fee": null, "informal": null, "surface": null, "tidal": null, "waterway": "stream", "wheelchair": null, "name": "Axtell Creek", "wikidata": null, "intermittent": null, "tunnel": "culvert", "layer": "-1" }, "geometry": { "type": "LineString", "coordinates": [ [ -85.586527, 42.2787319 ], [ -85.5865263, 42.2789171 ] ] } },
{ "type": "Feature", "properties": { "element": "way", "id": 1486818737, "access": null, "canoe": null, "description": null, "fee": null, "informal": null, "surface": null, "tidal": null, "waterway": "stream", "wheelchair": null, "name": "Axtell Creek", "wikidata": null, "intermittent": null, "tunnel": "culvert", "layer": "-1" }, "geometry": { "type": "LineString", "coordinates": [ [ -85.5873981, 42.277015 ], [ -85.5871313, 42.2771277 ] ] } },
{ "type": "Feature", "properties": { "element": "way", "id": 1486818738, "access": null, "canoe": null, "description": null, "fee": null, "informal": null, "surface": null, "tidal": null, "waterway": "stream", "wheelchair": null, "name": "Axtell Creek", "wikidata": null, "intermittent": null, "tunnel": null, "layer": null }, "geometry": { "type": "LineString", "coordinates": [ [ -85.5890794, 42.2769327 ], [ -85.5887995, 42.2769198 ], [ -85.5886687, 42.2769148 ], [ -85.5885474, 42.2769382 ], [ -85.5884582, 42.2769357 ], [ -85.5882423, 42.2769391 ], [ -85.5881343, 42.2769451 ], [ -85.5880129, 42.2769481 ], [ -85.5878091, 42.2769555 ], [ -85.5876475, 42.2769585 ], [ -85.5875254, 42.2769664 ], [ -85.5873981, 42.277015 ] ] } },
{ "type": "Feature", "properties": { "element": "way", "id": 1486818739, "access": null, "canoe": null, "description": null, "fee": null, "informal": null, "surface": null, "tidal": null, "waterway": "stream", "wheelchair": null, "name": "Axtell Creek", "wikidata": null, "intermittent": null, "tunnel": "culvert", "layer": "-1" }, "geometry": { "type": "LineString", "coordinates": [ [ -85.5897624, 42.2767392 ], [ -85.5896524, 42.2767377 ], [ -85.5894633, 42.2769451 ], [ -85.5890794, 42.2769327 ] ] } }
]
}
